{"type":"FeatureCollection","metadata":{"estado":"oficial","aviso":"Límite oficial del Paisaje Protegido de San Juan de la Peña y Monte Oroel. La capa representa el espacio protegido, no el perímetro del incendio.","fuente":{"nombre":"Aragón Open Data / ICEARAGON — Espacios Naturales Protegidos","url":"https://opendata.aragon.es/datos/catalogo/dataset/espacios-naturales-protegidos-en-aragon_rednat_enp","servicio_wfs":"https://idearagon.aragon.es/Visor2D?service=WFS&version=1.0.0&request=GetFeature&typeName=VISOR2D%3AENP_ES24&outputFormat=application%2Fjson&srsName=EPSG%3A4326&CQL_FILTER=objectid%3D14"},"fecha_hora":"2026-03-11T10:47:57+01:00","fecha_consulta":"2026-08-17T05:37:11+02:00","licencia":"CC BY 4.0","sistema_referencia":"EPSG:4326"},"features":[{"type":"Feature","id":"ENP_ES24.14","geometry":{"type":"MultiPolygon","coordinates":[[[[-0.64978477,42.55683206],[-0.64856367,42.556807],[-0.64693491,42.55679028],[-0.645852,42.5567011],[-0.64506118,42.55666811],[-0.6438244,42.55645863],[-0.64319187,42.55642889],[-0.64253169,42.55653242],[-0.63949528,42.55663718],[-0.63816176,42.55659295],[-0.63678743,42.55643076],[-0.63516817,42.5561631],[-0.63350495,42.55586106],[-0.63318775,42.55587123],[-0.63295166,42.55553174],[-0.63246987,42.55531118],[-0.63246747,42.55517038],[-0.63291811,42.55402528],[-0.63249403,42.55446824],[-0.63187465,42.55468966],[-0.63124742,42.55475157],[-0.62915426,42.55481742],[-0.62797843,42.55479307],[-0.62661108,42.55475736],[-0.62611332,42.5547113],[-0.62595773,42.55456512],[-0.62554634,42.55436599],[-0.62532003,42.55438512],[-0.62443241,42.55399741],[-0.62405054,42.55394204],[-0.62388228,42.55405747],[-0.62341989,42.55392875],[-0.62353683,42.55339509],[-0.62320008,42.55335237],[-0.62289237,42.55339363],[-0.62284706,42.55373817],[-0.62279378,42.55386811],[-0.62249103,42.55381988],[-0.62225976,42.5539285],[-0.62190284,42.55399256],[-0.6217128,42.55390522],[-0.62119714,42.55390643],[-0.62100349,42.55391432],[-0.62102999,42.55364087],[-0.62063427,42.55345396],[-0.6205762,42.55328597],[-0.62029274,42.5531133],[-0.62031427,42.55297079],[-0.61988866,42.5527012],[-0.61983517,42.55291758],[-0.61900238,42.55279989],[-0.61732962,42.55264665],[-0.61745365,42.5523514],[-0.61649264,42.55220036],[-0.61503527,42.5519675],[-0.61361192,42.55168768],[-0.61242917,42.55143668],[-0.61137362,42.55165293],[-0.60899504,42.55065026],[-0.60771874,42.54989691],[-0.60766354,42.54881168],[-0.60531841,42.54820276],[-0.60327327,42.54775493],[-0.60139006,42.54757336],[-0.60147573,42.54710057],[-0.60172253,42.54683098],[-0.60248996,42.54619761],[-0.60305389,42.54558496],[-0.60344141,42.54516843],[-0.60365826,42.5447983],[-0.60393687,42.54457933],[-0.60441323,42.54448938],[-0.60484819,42.54459839],[-0.60517999,42.5447552],[-0.60561782,42.54478933],[-0.60596203,42.54462168],[-0.6062107,42.54430216],[-0.60641989,42.54413168],[-0.60676314,42.54398899],[-0.60744104,42.54392822],[-0.60815175,42.54389311],[-0.60906973,42.54373743],[-0.60948428,42.5434963],[-0.60970775,42.54295144],[-0.61051779,42.54296834],[-0.61095174,42.54319826],[-0.61161637,42.54339091],[-0.6129945,42.54356951],[-0.61429277,42.54407115],[-0.6145762,42.54393586],[-0.61495403,42.54356038],[-0.61533907,42.54338774],[-0.61564713,42.54310022],[-0.61697348,42.54253832],[-0.61801632,42.54120122],[-0.61936053,42.53960558],[-0.6196393,42.5396877],[-0.61985635,42.53989065],[-0.62102046,42.54018157],[-0.62153249,42.54022521],[-0.62270619,42.54044941],[-0.62333689,42.5406222],[-0.62424925,42.54073121],[-0.6250517,42.54094768],[-0.6255832,42.5411835],[-0.62607339,42.5416183],[-0.62653812,42.54204785],[-0.62710171,42.54211419],[-0.6281518,42.54203603],[-0.62899181,42.54215334],[-0.62906906,42.54257233],[-0.62954575,42.54268935],[-0.62969519,42.54141855],[-0.6297882,42.54074606],[-0.63020455,42.54045494],[-0.63117883,42.53970077],[-0.63157723,42.53988386],[-0.63229449,42.53967388],[-0.63262916,42.53975574],[-0.63317106,42.53971698],[-0.63397541,42.53988347],[-0.63430915,42.53999028],[-0.63448356,42.53984401],[-0.63567786,42.54041819],[-0.63677186,42.54096532],[-0.63762868,42.54153252],[-0.63821268,42.54216902],[-0.63896789,42.54181958],[-0.63892772,42.5416849],[-0.63967573,42.54104782],[-0.64014236,42.54067263],[-0.64035906,42.54032575],[-0.64020774,42.54013859],[-0.64036102,42.53967329],[-0.64073343,42.53939654],[-0.6414079,42.5389085],[-0.64203087,42.53858672],[-0.64344504,42.53828121],[-0.64372701,42.53800258],[-0.64277571,42.53743089],[-0.64217101,42.53726787],[-0.64171952,42.53724184],[-0.64122094,42.53726503],[-0.64081592,42.5372065],[-0.63982764,42.53641652],[-0.63944776,42.53629158],[-0.6380437,42.53632955],[-0.63772975,42.53625615],[-0.63731411,42.5358795],[-0.63650621,42.53450764],[-0.63601785,42.53366102],[-0.63579318,42.53302061],[-0.63549186,42.53261285],[-0.63525142,42.53239038],[-0.6344873,42.53225749],[-0.63367609,42.53217381],[-0.63281651,42.53217277],[-0.63320899,42.53196339],[-0.63282359,42.53138657],[-0.63216557,42.53143989],[-0.63139909,42.53077154],[-0.63116879,42.53028159],[-0.63129823,42.52984926],[-0.63107741,42.52910854],[-0.63091872,42.52851968],[-0.63112166,42.5279383],[-0.63143509,42.52742612],[-0.63093673,42.52684697],[-0.63054283,42.52663061],[-0.63025767,42.52659184],[-0.63027633,42.52671019],[-0.63026386,42.52684681],[-0.63019837,42.52696883],[-0.63006569,42.5270003],[-0.62979693,42.52705688],[-0.6297306,42.52713655],[-0.62979888,42.52723071],[-0.62995452,42.52732062],[-0.62995254,42.52732034],[-0.6299458,42.52736973],[-0.62967319,42.52749556],[-0.62928308,42.52754152],[-0.62884775,42.52759194],[-0.62853292,42.52764306],[-0.62817448,42.5277527],[-0.62810622,42.52785725],[-0.62739539,42.527914],[-0.62700689,42.52796552],[-0.62685619,42.52811727],[-0.62664502,42.52858941],[-0.62643386,42.52906156],[-0.626211,42.52925459],[-0.62598128,42.5295287],[-0.62570542,42.52958255],[-0.62530307,42.5295742],[-0.62509384,42.52956987],[-0.6249481,42.52959067],[-0.62470352,42.52966899],[-0.62452694,42.52965341],[-0.62429004,42.52952937],[-0.62411571,42.52945427],[-0.62394322,42.52939837],[-0.62368072,42.52945716],[-0.62340532,42.5294991],[-0.62310043,42.52946895],[-0.62279374,42.52948641],[-0.62240522,42.5295379],[-0.62195142,42.52961188],[-0.62140965,42.52945767],[-0.62122466,42.52923939],[-0.62111652,42.52911802],[-0.62084762,42.52897221],[-0.62059192,42.52903713],[-0.62019463,42.52930353],[-0.62014474,42.52933492],[-0.62014517,42.52933504],[-0.61997905,42.52940171],[-0.61985762,42.52942531],[-0.61981515,42.52942172],[-0.61959913,42.5293713],[-0.61931767,42.52928081],[-0.61896767,42.52913575],[-0.6186479,42.52902825],[-0.61848674,42.52894385],[-0.61835393,42.52888255],[-0.61818078,42.52885734],[-0.61799453,42.52888859],[-0.61788499,42.52891963],[-0.6176587,42.52894734],[-0.6173776,42.52897571],[-0.61709678,42.5290284],[-0.61682845,42.52907325],[-0.61648576,42.52912015],[-0.61616215,42.52911341],[-0.61590461,42.52906663],[-0.61568108,42.52895751],[-0.61552115,42.52887314],[-0.61527479,42.52875635],[-0.61512447,42.52870729],[-0.61485798,42.5286396],[-0.61463343,42.52862142],[-0.61435639,42.52857236],[-0.61408234,42.52857856],[-0.61390531,42.52857487],[-0.61377548,42.5285153],[-0.61364564,42.52840813],[-0.61344737,42.52824371],[-0.61336305,42.52812399],[-0.61325685,42.52797139],[-0.61305983,42.52780609],[-0.61288715,42.52767282],[-0.61265234,42.52754095],[-0.61243779,42.52742031],[-0.61222039,42.52737436],[-0.61197274,42.52735569],[-0.611722,42.52735406],[-0.61150145,42.52739088],[-0.61129543,42.52742981],[-0.61118139,42.52741933],[-0.6110624,42.52737902],[-0.61090071,42.52730901],[-0.61079167,42.5272311],[-0.61063065,42.52711157],[-0.61054545,42.52701524],[-0.6104625,42.52689194],[-0.61041302,42.52678465],[-0.6102726,42.52663583],[-0.61014053,42.52652322],[-0.60996231,42.52647177],[-0.60977756,42.52649583],[-0.60961405,42.52653744],[-0.60956093,42.52658947],[-0.60953831,42.52667184],[-0.60952061,42.52678493],[-0.60943445,42.52693712],[-0.6093577,42.5270661],[-0.60926015,42.52716582],[-0.60909289,42.52724157],[-0.60894683,42.52727274],[-0.60880088,42.52726879],[-0.60858851,42.52718692],[-0.60844797,42.52713716],[-0.60827093,42.5270227],[-0.60811321,42.52688072],[-0.60795834,42.52666407],[-0.6078077,42.52649613],[-0.60767567,42.52628715],[-0.60754741,42.52617101],[-0.60740517,42.52613382],[-0.60720764,42.52610988],[-0.60696458,42.5260985],[-0.60673754,42.52614598],[-0.60655941,42.5262197],[-0.60635079,42.52635852],[-0.60614021,42.52645318],[-0.60589534,42.526521],[-0.60576053,42.5265443],[-0.60567879,42.52648496],[-0.60562427,42.52641448],[-0.60557672,42.52632073],[-0.60554456,42.5262066],[-0.60546267,42.52611933],[-0.60531219,42.52607476],[-0.60512576,42.52607897],[-0.60497417,42.52612713],[-0.60477476,42.52618419],[-0.60456435,42.52627435],[-0.60440715,42.52627826],[-0.60428875,42.52622266],[-0.60414776,42.52608913],[-0.60408134,42.5260112],[-0.60392822,42.525845],[-0.60376797,42.52570567],[-0.60355505,42.52560666],[-0.60327275,42.52547559],[-0.60301403,42.52530088],[-0.6026444,42.52509773],[-0.60246587,42.5249274],[-0.60235562,42.52481793],[-0.60219736,42.5247858],[-0.60212824,42.52481047],[-0.60206654,42.52486411],[-0.60193499,42.52496131],[-0.60172506,42.52503886],[-0.60157602,42.52502043],[-0.60126151,42.52490398],[-0.60102847,42.52479014],[-0.60076198,42.52462786],[-0.60058487,42.52454761],[-0.60045285,42.52456196],[-0.60029659,42.52457309],[-0.60017253,42.52453807],[-0.60004144,42.52443266],[-0.59994547,42.52430008],[-0.59983929,42.52417989],[-0.59968446,42.52418565],[-0.59950256,42.52423046],[-0.59928616,42.52428626],[-0.59905455,42.52435795],[-0.59881191,42.52433575],[-0.59863147,42.52424732],[-0.59853398,42.52412281],[-0.59847433,42.52399549],[-0.5982781,42.52384279],[-0.59798182,42.52375913],[-0.59777693,42.52373682],[-0.59744464,42.52373525],[-0.59732975,42.52374725],[-0.59709509,42.52377114],[-0.5969408,42.52373099],[-0.59682755,42.52363676],[-0.59676871,42.52355178],[-0.59669124,42.52341327],[-0.596623,42.52322454],[-0.59653527,42.52306781],[-0.59640539,42.52289939],[-0.59630064,42.52277382],[-0.59614219,42.52262011],[-0.59605896,42.52250489],[-0.59589267,42.52230149],[-0.59578847,42.52213001],[-0.5956542,42.52204434],[-0.59554111,42.52207259],[-0.59541148,42.52218333],[-0.59529939,42.52231245],[-0.59522023,42.52247198],[-0.59504718,42.52260342],[-0.594926,42.52262069],[-0.59482564,42.52253934],[-0.5947567,42.52243253],[-0.59471327,42.52229564],[-0.59472192,42.52216525],[-0.59479042,42.52202981],[-0.59480187,42.5219535],[-0.59474086,42.52189369],[-0.59450649,42.52191038],[-0.59428946,42.52195085],[-0.59405291,42.52202422],[-0.59367664,42.52209016],[-0.59346475,42.52209201],[-0.5932916,42.52206766],[-0.59310954,42.52195847],[-0.59301026,42.52184923],[-0.59297388,42.52171879],[-0.59292093,42.52163933],[-0.59276491,42.52158112],[-0.59248454,42.5215275],[-0.5921444,42.52147712],[-0.59182878,42.52139034],[-0.59163801,42.52131789],[-0.59145182,42.52125274],[-0.59132583,42.52120507],[-0.59111894,42.5211719],[-0.59087157,42.52120992],[-0.59062501,42.52125876],[-0.59040093,42.52132429],[-0.59018497,42.52130534],[-0.58999492,42.52121399],[-0.58992581,42.52111168],[-0.5899768,42.52095696],[-0.59006115,42.52078944],[-0.58999673,42.52062869],[-0.58983446,42.52057485],[-0.58956828,42.52056385],[-0.58930819,42.52055297],[-0.58901488,42.5205513],[-0.58881611,42.52062365],[-0.58871565,42.52076652],[-0.58862261,42.52090684],[-0.5884511,42.52093475],[-0.58828559,42.52083851],[-0.58817291,42.52072988],[-0.58805939,42.52061132],[-0.58794771,42.5204766],[-0.58786581,42.52032719],[-0.587809,42.52012698],[-0.58774298,42.51994458],[-0.58754279,42.51983231],[-0.58733577,42.51980273],[-0.58708962,42.51980925],[-0.58683133,42.51981461],[-0.58663657,42.51971956],[-0.58651044,42.51964396],[-0.5861807,42.51954516],[-0.58595481,42.51949987],[-0.58565473,42.51954758],[-0.58536698,42.51959104],[-0.58501272,42.51956016],[-0.58466171,42.5194447],[-0.58429447,42.51930818],[-0.5840719,42.51917651],[-0.58388284,42.51902844],[-0.58378344,42.51889126],[-0.58369676,42.51873995],[-0.58365922,42.51857707],[-0.58351463,42.51834889],[-0.58331542,42.51811685],[-0.58306325,42.51790081],[-0.5828783,42.51783568],[-0.58266145,42.51774555],[-0.5825769,42.51769694],[-0.58250307,42.51755941],[-0.58241077,42.5174593],[-0.58222551,42.51746529],[-0.58198892,42.51744499],[-0.58163644,42.51736821],[-0.58135944,42.51722818],[-0.58116608,42.51712865],[-0.58087636,42.51706579],[-0.58079997,42.51699484],[-0.5807877,42.51687121],[-0.58083103,42.51672624],[-0.58095745,42.51654161],[-0.5810086,42.5163833],[-0.58091658,42.51630751],[-0.58069077,42.51629193],[-0.5803938,42.51632258],[-0.58009282,42.51642518],[-0.57994607,42.51650583],[-0.57980961,42.51650925],[-0.57965914,42.51643403],[-0.57950008,42.5162974],[-0.57924258,42.51615687],[-0.57875861,42.5158918],[-0.57839186,42.51568053],[-0.57815813,42.51555492],[-0.57786366,42.51558381],[-0.57763796,42.51566008],[-0.57757552,42.51560653],[-0.57758688,42.51550141],[-0.5776413,42.51535308],[-0.57763957,42.51517744],[-0.57766383,42.51495913],[-0.5777375,42.51481661],[-0.5776165,42.5147348],[-0.57736885,42.51471786],[-0.57717963,42.51470035],[-0.57686501,42.5147153],[-0.57656161,42.51475481],[-0.57644819,42.51488659],[-0.57644537,42.51495947],[-0.57627746,42.51502075],[-0.57602142,42.51503154],[-0.57576782,42.51494783],[-0.57554894,42.51484774],[-0.57538172,42.51485951],[-0.57524759,42.51489719],[-0.57512965,42.51483076],[-0.57507677,42.51471888],[-0.5750668,42.51466193],[-0.57492371,42.51449051],[-0.57476746,42.5143134],[-0.57463727,42.5140603],[-0.57446464,42.51399364],[-0.57446457,42.51399361],[-0.5739553,42.51422596],[-0.57381403,42.51441658],[-0.57369056,42.51455624],[-0.5734981,42.51471696],[-0.57325601,42.51499639],[-0.57301642,42.51524255],[-0.57286899,42.51546636],[-0.57256894,42.51560768],[-0.57227498,42.5156861],[-0.57176951,42.51597706],[-0.57140401,42.51623676],[-0.57115392,42.51643947],[-0.57089811,42.51650699],[-0.57035599,42.51661255],[-0.56982152,42.51667775],[-0.56930199,42.51673427],[-0.56871376,42.51674159],[-0.56840417,42.51675213],[-0.56804901,42.51680762],[-0.56778027,42.51686314],[-0.56749824,42.51685355],[-0.56723431,42.51681643],[-0.56711927,42.51682144],[-0.56711724,42.51682205],[-0.56704446,42.51668993],[-0.56690047,42.5165734],[-0.56672195,42.51646875],[-0.56655491,42.51644449],[-0.56618426,42.51646003],[-0.56575755,42.51647707],[-0.56522305,42.51648012],[-0.56497244,42.51647659],[-0.5646399,42.51635696],[-0.56425429,42.51628752],[-0.56384083,42.51627692],[-0.56349094,42.51625958],[-0.56318148,42.51617285],[-0.5629607,42.51605919],[-0.56284686,42.51591899],[-0.56257291,42.51573305],[-0.56224799,42.51563699],[-0.56191993,42.51555886],[-0.5615225,42.51541802],[-0.56119466,42.51520933],[-0.5608723,42.51504757],[-0.56055545,42.51493186],[-0.56019563,42.51479452],[-0.55983354,42.51468415],[-0.55973478,42.5145947],[-0.55958785,42.51449161],[-0.55935246,42.51437853],[-0.55915751,42.51428973],[-0.55914159,42.51426918],[-0.55861693,42.5140183],[-0.55837765,42.51363718],[-0.55775548,42.51384325],[-0.55725111,42.51428685],[-0.55687267,42.51421611],[-0.55644642,42.51428535],[-0.55602506,42.51422935],[-0.55572882,42.51422303],[-0.55561874,42.51433035],[-0.55593431,42.51438409],[-0.55633025,42.51454921],[-0.55653331,42.51477289],[-0.55702692,42.51569213],[-0.55708369,42.51586568],[-0.55714047,42.51603923],[-0.55739317,42.51607596],[-0.55850188,42.51642861],[-0.55868562,42.51660487],[-0.55880466,42.51681108],[-0.55881119,42.51718724],[-0.55877661,42.51753119],[-0.55854671,42.5179963],[-0.55830052,42.51833573],[-0.55803683,42.51858079],[-0.55779795,42.51873237],[-0.55741094,42.51888079],[-0.5571562,42.51943938],[-0.55691183,42.51973184],[-0.55679931,42.51990178],[-0.55690024,42.52002928],[-0.55723761,42.52006781],[-0.55784032,42.52036268],[-0.55812988,42.52054119],[-0.55846463,42.52119069],[-0.55883885,42.52137101],[-0.55899534,42.52170335],[-0.55862826,42.52188354],[-0.55843231,42.52202037],[-0.55806767,42.52213793],[-0.55785116,42.52225865],[-0.55769143,42.52255292],[-0.55776998,42.52271127],[-0.55795214,42.52279637],[-0.55829112,42.52292606],[-0.5586279,42.52298024],[-0.55885033,42.52325133],[-0.55882429,42.52337611],[-0.55866334,42.5237017],[-0.5587364,42.52400093],[-0.55876714,42.52429927],[-0.55871384,42.52458014],[-0.55842774,42.52485605],[-0.55837382,42.52515258],[-0.55826068,42.52533818],[-0.55816993,42.52549292],[-0.55826842,42.52568302],[-0.55806697,42.52596075],[-0.55776275,42.52615793],[-0.55733275,42.5263211],[-0.55688709,42.52634293],[-0.5565448,42.52642963],[-0.5565562,42.52668055],[-0.55664798,42.52704285],[-0.55669743,42.52740426],[-0.55657818,42.52774639],[-0.55641782,42.52805632],[-0.55638872,42.52825937],[-0.55626783,42.52972952],[-0.55640683,42.52996749],[-0.55686636,42.53013397],[-0.55722617,42.53014165],[-0.55760837,42.53011847],[-0.55811023,42.53028584],[-0.55831762,42.53039993],[-0.55839069,42.53069917],[-0.55827083,42.53105696],[-0.55815341,42.53135214],[-0.55814609,42.53153999],[-0.5581176,42.53172739],[-0.55787196,42.53205117],[-0.55743216,42.5324648],[-0.55710979,42.53258326],[-0.55662785,42.53244765],[-0.55601403,42.53243455],[-0.55507968,42.53249294],[-0.55455175,42.53245033],[-0.55479107,42.53283146],[-0.55509391,42.53321394],[-0.55543724,42.53364428],[-0.55576491,42.53393329],[-0.55615486,42.53425496],[-0.5564862,42.53445004],[-0.55690404,42.53459996],[-0.55736727,42.53467251],[-0.55762188,42.53466227],[-0.55816489,42.53486186],[-0.55847569,42.53504083],[-0.5587816,42.53534503],[-0.55885773,42.53556599],[-0.55892471,42.53602177],[-0.55897966,42.53624229],[-0.55898314,42.53669671],[-0.55903505,42.53699549],[-0.55935605,42.53745669],[-0.55953924,42.5376486],[-0.55963593,42.53788567],[-0.55971328,42.53807532],[-0.55974708,42.53829539],[-0.55966832,42.53868539],[-0.55970499,42.53937553],[-0.55965595,42.53954683],[-0.5596928,42.53968862],[-0.56010336,42.54002638],[-0.56013167,42.54038733],[-0.55924502,42.54030577],[-0.55819982,42.54048716],[-0.55726595,42.54052991],[-0.55686936,42.54054392],[-0.55655458,42.54062185],[-0.55622493,42.54067515],[-0.55579276,42.54073437],[-0.55546771,42.54076345],[-0.5549647,42.54079684],[-0.55442624,42.54080245],[-0.55384285,42.54077378],[-0.55334464,42.54071541],[-0.55296941,42.54062634],[-0.55251238,42.54051122],[-0.55214355,42.54041418],[-0.55174448,42.540312],[-0.55130843,42.54019011],[-0.5510122,42.54013605],[-0.55050935,42.54007217],[-0.55009495,42.53995704],[-0.54982139,42.53982152],[-0.5495491,42.53959146],[-0.54925198,42.53937348],[-0.5491654,42.53934552],[-0.54909244,42.53934305],[-0.54901553,42.53937923],[-0.54881392,42.53961445],[-0.54862578,42.53991029],[-0.54846359,42.54013375],[-0.54823866,42.54037387],[-0.54799876,42.54056054],[-0.54768431,42.54078524],[-0.5475955,42.54084547],[-0.54714371,42.54096997],[-0.54667306,42.54101662],[-0.54628596,42.54101283],[-0.54596138,42.54099867],[-0.54551106,42.54099262],[-0.54519559,42.54096335],[-0.54479598,42.54084402],[-0.54442489,42.54064965],[-0.54413168,42.54042544],[-0.54391562,42.54012814],[-0.5436493,42.53990181],[-0.54334552,42.53969898],[-0.54312645,42.53944754],[-0.5430925,42.53919557],[-0.5418924,42.53871255],[-0.5401167,42.53866162],[-0.54004195,42.53873566],[-0.53965676,42.5389318],[-0.53937291,42.53905897],[-0.53906541,42.53919915],[-0.53882194,42.53935241],[-0.53875415,42.53940408],[-0.53831013,42.53945487],[-0.53818071,42.53949441],[-0.53807858,42.53955255],[-0.53802507,42.53961263],[-0.53799886,42.53965979],[-0.53770135,42.53957686],[-0.53740385,42.53952453],[-0.5372762,42.53951909],[-0.53716954,42.5395375],[-0.53707373,42.53958947],[-0.53689957,42.53983787],[-0.53691812,42.53995444],[-0.53653079,42.53995691],[-0.53629553,42.54017968],[-0.53624931,42.5402093],[-0.53613689,42.54015735],[-0.53608363,42.54005625],[-0.53604744,42.54001675],[-0.53569656,42.54008304],[-0.5353592,42.5401154],[-0.5348497,42.54012785],[-0.53449646,42.54009953],[-0.53409635,42.53999367],[-0.53379299,42.53987366],[-0.53346485,42.53970271],[-0.53313925,42.5395291],[-0.53280292,42.53944261],[-0.53242212,42.53949564],[-0.53203179,42.53960519],[-0.53163528,42.53965518],[-0.53131197,42.5396401],[-0.53116674,42.53961716],[-0.53106124,42.53957526],[-0.53078049,42.53940712],[-0.53070841,42.53938215],[-0.5304703,42.53936801],[-0.53040761,42.53938287],[-0.53034417,42.53941662],[-0.53016033,42.53957024],[-0.52996049,42.53938853],[-0.5298862,42.53938873],[-0.52984383,42.53950579],[-0.52973832,42.53955664],[-0.52932425,42.53961975],[-0.52893352,42.53961582],[-0.52854709,42.53953364],[-0.52827635,42.53942063],[-0.52800761,42.53928786],[-0.52770451,42.53916155],[-0.52760556,42.5391387],[-0.52752167,42.53910447],[-0.52747457,42.53906383],[-0.52747287,42.53898365],[-0.52751316,42.53888817],[-0.52717226,42.53879436],[-0.52689205,42.53858209],[-0.52668831,42.53837598],[-0.52644444,42.53810686],[-0.52627451,42.53784654],[-0.52617485,42.53759495],[-0.52600584,42.53731124],[-0.52581623,42.5370559],[-0.52579263,42.53697525],[-0.52504309,42.5367359],[-0.52427086,42.53669022],[-0.52419347,42.53673807],[-0.52383245,42.53684553],[-0.52342001,42.53692936],[-0.52298862,42.53696866],[-0.52267446,42.53699969],[-0.52232732,42.53712545],[-0.52223025,42.53717828],[-0.52214273,42.5372052],[-0.52178191,42.53727664],[-0.5217285,42.53733402],[-0.52167605,42.5373671],[-0.52146253,42.53734717],[-0.52137418,42.53736417],[-0.5209959,42.53763064],[-0.52081728,42.5376826],[-0.5206485,42.53773207],[-0.52033862,42.53771636],[-0.52002332,42.5376528],[-0.51971903,42.53764981],[-0.51953985,42.5375928],[-0.51945007,42.53758455],[-0.51916905,42.53770093],[-0.51884493,42.53773714],[-0.51851544,42.53769397],[-0.51838393,42.53766321],[-0.51829651,42.53765682],[-0.51821693,42.53769831],[-0.51797156,42.53786769],[-0.51758087,42.53786283],[-0.5172117,42.53783771],[-0.51702762,42.53802733],[-0.5169455,42.53810209],[-0.51689573,42.53812893],[-0.51669965,42.53791486],[-0.51659304,42.53780899],[-0.51653342,42.53777708],[-0.51642582,42.53781887],[-0.51636511,42.53787609],[-0.51603806,42.53774022],[-0.51578413,42.53760324],[-0.51545921,42.53747552],[-0.51512899,42.53735849],[-0.51469266,42.53739945],[-0.51430237,42.53738468],[-0.51399624,42.53730509],[-0.51396718,42.53723962],[-0.51398101,42.53701389],[-0.51388587,42.53701813],[-0.51381673,42.53701123],[-0.5137194,42.5369785],[-0.51346397,42.53681806],[-0.51344538,42.5370716],[-0.51339916,42.53716245],[-0.51309354,42.53719273],[-0.5127409,42.53718057],[-0.51241592,42.5371465],[-0.51205863,42.53709821],[-0.51199687,42.53708967],[-0.51163703,42.53698279],[-0.51127787,42.5368282],[-0.51121801,42.53677197],[-0.51119532,42.53673006],[-0.51111974,42.53667078],[-0.5110924,42.53665398],[-0.51099615,42.53671672],[-0.5108366,42.53677899],[-0.51035926,42.53668757],[-0.50991087,42.53651122],[-0.50951414,42.53629098],[-0.50919929,42.53615536],[-0.5087956,42.53598808],[-0.50852949,42.53585172],[-0.50836876,42.53560689],[-0.50837388,42.53553946],[-0.50857168,42.53534205],[-0.50862009,42.53528817],[-0.50856914,42.53503852],[-0.50843299,42.53475731],[-0.50829849,42.53452655],[-0.50813859,42.53429164],[-0.50799858,42.53407697],[-0.50787181,42.5338662],[-0.50780633,42.53361443],[-0.50780676,42.5335424],[-0.50718218,42.53348923],[-0.50677061,42.53325945],[-0.50580267,42.53302758],[-0.50516815,42.5329435],[-0.50421419,42.53270189],[-0.5030522,42.53237802],[-0.50272341,42.53244019],[-0.50224649,42.53249192],[-0.50169419,42.53254111],[-0.50136948,42.53256194],[-0.50102918,42.53257703],[-0.50050747,42.53259175],[-0.49994909,42.53257956],[-0.49942316,42.53254737],[-0.49908515,42.53250487],[-0.49873674,42.53244863],[-0.49834715,42.53235637],[-0.49793145,42.53221672],[-0.49762655,42.53207678],[-0.49720833,42.53187853],[-0.49675676,42.53166154],[-0.49637803,42.53148037],[-0.49608824,42.53138938],[-0.49600126,42.53140279],[-0.49566569,42.53151252],[-0.4952838,42.53162393],[-0.49489254,42.53169552],[-0.49456697,42.53173792],[-0.4942525,42.53177697],[-0.49378543,42.53179556],[-0.49335941,42.53176192],[-0.49304249,42.53170996],[-0.49270443,42.53163862],[-0.49232576,42.53154748],[-0.4918772,42.53140798],[-0.49145805,42.53126372],[-0.49105231,42.53114948],[-0.49052475,42.53100644],[-0.49011787,42.53089036],[-0.48957601,42.5307398],[-0.48929948,42.53062208],[-0.48901178,42.53050951],[-0.48868941,42.53041149],[-0.48834034,42.53043272],[-0.4881782,42.53049477],[-0.48736347,42.53046377],[-0.48712938,42.53055047],[-0.48694795,42.53065145],[-0.4865705,42.53077436],[-0.4864933,42.53093011],[-0.48641609,42.53108585],[-0.48618359,42.53113323],[-0.48494717,42.53100112],[-0.48489663,42.53093441],[-0.48452444,42.53092623],[-0.48413611,42.53087834],[-0.48387289,42.53080696],[-0.4839887,42.53057335],[-0.48437194,42.53030625],[-0.48437721,42.53017517],[-0.48420489,42.52960723],[-0.48411171,42.52927718],[-0.48398256,42.52895947],[-0.48388255,42.52879983],[-0.48382288,42.52807693],[-0.48377814,42.52786603],[-0.4836225,42.52732469],[-0.48363303,42.52706252],[-0.48380376,42.52634468],[-0.48391237,42.52584852],[-0.48379937,42.52557052],[-0.4837369,42.52535922],[-0.48380007,42.52511133],[-0.48391745,42.5248384],[-0.483905,42.52470692],[-0.48367374,42.52428201],[-0.48397096,42.52394742],[-0.48410554,42.52368798],[-0.48425046,42.52361245],[-0.48450277,42.52351303],[-0.48496194,42.52356247],[-0.48521477,42.52344995],[-0.48544778,42.52338947],[-0.48594134,42.5234659],[-0.48594376,42.52252132],[-0.48764301,42.52216502],[-0.48825827,42.52141757],[-0.48837209,42.52079031],[-0.48812978,42.52064067],[-0.48761604,42.52018333],[-0.48816306,42.51985845],[-0.4880403,42.51915847],[-0.4881723,42.51868721],[-0.48807715,42.51823885],[-0.48824793,42.51774055],[-0.48840643,42.51754879],[-0.48860483,42.51739983],[-0.48856373,42.51720457],[-0.48850241,42.51709427],[-0.48820953,42.5168393],[-0.48792268,42.5166466],[-0.48769339,42.51641464],[-0.4874557,42.51614918],[-0.48716792,42.51594926],[-0.48681278,42.51579018],[-0.48637592,42.51548342],[-0.48614635,42.51525865],[-0.48594043,42.51505152],[-0.48561119,42.51479305],[-0.48528264,42.51460843],[-0.48515236,42.51451822],[-0.48513064,42.51445291],[-0.48536301,42.51412212],[-0.48541193,42.51405566],[-0.48537988,42.51376229],[-0.48527109,42.51350055],[-0.48510222,42.51321948],[-0.48487448,42.51301007],[-0.4845806,42.51284152],[-0.48455197,42.51279677],[-0.48459501,42.51275539],[-0.48509961,42.51270794],[-0.4854419,42.51264071],[-0.48573219,42.51247419],[-0.48578808,42.51241598],[-0.48583686,42.5123225],[-0.48588892,42.51226871],[-0.48608264,42.51226396],[-0.48613013,42.51220287],[-0.48604866,42.51207951],[-0.48604031,42.51201449],[-0.48610271,42.51197624],[-0.48619746,42.5119504],[-0.48627703,42.51190892],[-0.48632275,42.5118613],[-0.48631148,42.51177821],[-0.48620322,42.51144264],[-0.48619782,42.51121289],[-0.48617028,42.51111053],[-0.4861227,42.51102214],[-0.48588303,42.51080705],[-0.48556312,42.51061993],[-0.48528322,42.510467],[-0.48499894,42.51030227],[-0.48486939,42.51019406],[-0.48483075,42.51012567],[-0.48486678,42.51007694],[-0.48530898,42.50997679],[-0.48573725,42.50995017],[-0.48608993,42.50980573],[-0.4862144,42.50958513],[-0.48623506,42.50952525],[-0.48617866,42.50941415],[-0.48622184,42.50936918],[-0.4863109,42.50936393],[-0.48666065,42.50941393],[-0.48670927,42.50938527],[-0.48653129,42.50917965],[-0.48636558,42.5089716],[-0.48623657,42.50875895],[-0.48600968,42.50852884],[-0.48566393,42.50853116],[-0.48560328,42.5084956],[-0.48558954,42.50841336],[-0.48565078,42.50819138],[-0.48573894,42.50787453],[-0.48579378,42.50762989],[-0.48590435,42.50739189],[-0.48607462,42.50709125],[-0.48610213,42.50686042],[-0.4860848,42.50659439],[-0.48611629,42.50635555],[-0.4861527,42.50623658],[-0.48609037,42.50590922],[-0.4861151,42.50583863],[-0.48617882,42.5057977],[-0.48625331,42.50579123],[-0.4863439,42.50580853],[-0.48643373,42.50584472],[-0.48651783,42.5059024],[-0.48668434,42.506151],[-0.48683254,42.50637037],[-0.48707572,42.50655851],[-0.4873971,42.50679969],[-0.48770511,42.50700997],[-0.48809268,42.50717876],[-0.48832972,42.50745952],[-0.48836967,42.50779899],[-0.48844008,42.5077429],[-0.48853834,42.50769012],[-0.48880151,42.50756172],[-0.4889192,42.50747965],[-0.48923858,42.50737589],[-0.48958724,42.50717912],[-0.48965543,42.50708696],[-0.48968307,42.50700472],[-0.48965453,42.50677536],[-0.48965147,42.50669965],[-0.48971203,42.50667667],[-0.49003071,42.50674219],[-0.49027898,42.50677284],[-0.49069935,42.50682168],[-0.4907202,42.50672668],[-0.4907426,42.50641019],[-0.49095863,42.50624293],[-0.49134862,42.50616863],[-0.49137857,42.50611975],[-0.49131348,42.50598235],[-0.49114718,42.50566713],[-0.49114116,42.50560486],[-0.49116517,42.50555226],[-0.49123557,42.50549617],[-0.49137732,42.50542093],[-0.49164849,42.50524407],[-0.49177136,42.50503244],[-0.49180405,42.50473238],[-0.49179617,42.50435129],[-0.49184581,42.50408403],[-0.49190888,42.50399806],[-0.4920551,42.50375002],[-0.49203563,42.50368926],[-0.49191834,42.50360925],[-0.49150508,42.50338317],[-0.49121625,42.50314991],[-0.49120497,42.50306682],[-0.49122942,42.5029728],[-0.49131488,42.50275315],[-0.49135362,42.50269727],[-0.49141507,42.5026824],[-0.49148752,42.50269659],[-0.49165698,42.50278045],[-0.49204241,42.50300232],[-0.49248693,42.50320746],[-0.49303057,42.50333823],[-0.49337801,42.50335394],[-0.49372356,42.50332549],[-0.4937862,42.5032197],[-0.49387967,42.50298221],[-0.49398112,42.50266655],[-0.49440758,42.50219681],[-0.49448544,42.50216699],[-0.49465509,42.50218511],[-0.49474258,42.50212759],[-0.49492372,42.50210184],[-0.49521033,42.5020865],[-0.49551922,42.50203112],[-0.49584042,42.50194179],[-0.49614923,42.50188821],[-0.49621604,42.50192208],[-0.49626054,42.50184381],[-0.49633705,42.50175634],[-0.49665608,42.5015688],[-0.49677031,42.50154248],[-0.49709982,42.50151907],[-0.49723471,42.50155443],[-0.49730043,42.5016153],[-0.49734552,42.50167482],[-0.49739358,42.50175152],[-0.49743373,42.50181273],[-0.49749394,42.50167627],[-0.49756768,42.50141402],[-0.49763867,42.50137325],[-0.49774922,42.50124379],[-0.49773319,42.50113869],[-0.49800242,42.50097997],[-0.49861633,42.50079885],[-0.49896101,42.50077645],[-0.49922248,42.50081208],[-0.49957664,42.50105925],[-0.49993556,42.5011868],[-0.50012039,42.50111601],[-0.5002381,42.50069958],[-0.50046512,42.50058483],[-0.50110871,42.50067369],[-0.50141238,42.50066536],[-0.50170121,42.50052201],[-0.50202151,42.50060382],[-0.50222892,42.50047367],[-0.50237155,42.50044685],[-0.50259321,42.50046665],[-0.50279526,42.50047106],[-0.50295928,42.50041478],[-0.50324394,42.50037609],[-0.5034864,42.50038138],[-0.50373184,42.50031191],[-0.50411692,42.50029037],[-0.50440276,42.50022178],[-0.50445031,42.50004325],[-0.5046387,42.49988275],[-0.50495129,42.49965013],[-0.50529715,42.49959781],[-0.50588368,42.49959562],[-0.50642743,42.49965236],[-0.50686778,42.49976669],[-0.50724514,42.49993952],[-0.50748106,42.50010926],[-0.50796955,42.5000301],[-0.50839742,42.49994963],[-0.50896316,42.49996194],[-0.50950394,42.50009341],[-0.50989021,42.50004196],[-0.51007206,42.50004591],[-0.51029075,42.50014045],[-0.51065682,42.50008856],[-0.51116076,42.50012944],[-0.51176217,42.50026222],[-0.51193808,42.50041568],[-0.51245863,42.50003792],[-0.51277776,42.50014961],[-0.51329835,42.50028063],[-0.51367751,42.50040857],[-0.51384276,42.50083116],[-0.51419638,42.50109323],[-0.51465992,42.50113322],[-0.51505929,42.5012616],[-0.51543195,42.50155401],[-0.51567204,42.50161907],[-0.5160185,42.50155177],[-0.51655991,42.50166826],[-0.51700088,42.50176761],[-0.51731766,42.50193908],[-0.51753282,42.50212332],[-0.51770021,42.50200065],[-0.51785387,42.50181536],[-0.51800255,42.50138472],[-0.51814701,42.50106023],[-0.51879508,42.50101229],[-0.51915615,42.50065708],[-0.51925488,42.50027847],[-0.51928684,42.50007552],[-0.51928395,42.50006739],[-0.51947515,42.49987736],[-0.51975375,42.49913583],[-0.52049199,42.49871492],[-0.520931,42.49843013],[-0.5214714,42.49795162],[-0.52186235,42.49743652],[-0.52192721,42.49703438],[-0.52211166,42.49666904],[-0.52248331,42.49621585],[-0.52264856,42.49587038],[-0.52294795,42.49554028],[-0.52294292,42.495241],[-0.52260168,42.49449814],[-0.52323915,42.49413796],[-0.52424097,42.49393524],[-0.52485864,42.49364941],[-0.52519462,42.4932453],[-0.52606817,42.49287774],[-0.52665266,42.49257872],[-0.52673765,42.49213179],[-0.52692005,42.49135039],[-0.52691157,42.49113829],[-0.52705195,42.4905679],[-0.5262981,42.48993828],[-0.52483621,42.49000143],[-0.52436285,42.48966907],[-0.52404972,42.48916962],[-0.5236802,42.4888016],[-0.52343485,42.488531],[-0.52318801,42.48829828],[-0.5233135,42.48771357],[-0.52373474,42.48741949],[-0.52422825,42.48724067],[-0.52436586,42.48699731],[-0.52429758,42.48688376],[-0.52440115,42.48675173],[-0.52441086,42.4865056],[-0.52425022,42.48623226],[-0.52432497,42.48608686],[-0.52468682,42.48599994],[-0.52483806,42.48606006],[-0.52517658,42.48591578],[-0.52515772,42.48574483],[-0.52523178,42.48551461],[-0.5254066,42.48527648],[-0.52561423,42.48520517],[-0.5260461,42.4852903],[-0.52626505,42.48528895],[-0.52654331,42.4850168],[-0.52698786,42.48478006],[-0.52723091,42.48444389],[-0.52744435,42.48424039],[-0.52767829,42.4841507],[-0.52803342,42.48423416],[-0.52823656,42.48427644],[-0.52865254,42.48411488],[-0.52905883,42.48419944],[-0.52923938,42.48416544],[-0.52937473,42.48397887],[-0.52988929,42.48391417],[-0.53012472,42.48378661],[-0.53019377,42.48333331],[-0.53026131,42.48291789],[-0.53047041,42.4828087],[-0.53077587,42.48285319],[-0.53090674,42.48278022],[-0.53097969,42.48262201],[-0.53101498,42.48240498],[-0.53112733,42.4822688],[-0.53136787,42.48227399],[-0.5316572,42.48239902],[-0.53198024,42.48234658],[-0.53196364,42.48208883],[-0.53229835,42.48173966],[-0.53225424,42.48150112],[-0.53253472,42.48117057],[-0.53277419,42.48052234],[-0.53270334,42.48028322],[-0.53289742,42.48010921],[-0.53373913,42.47979075],[-0.53404088,42.47959925],[-0.53412883,42.47940315],[-0.53408704,42.47910525],[-0.53425749,42.47885153],[-0.53450423,42.47869845],[-0.53473124,42.47836674],[-0.53505971,42.47817582],[-0.5350942,42.47797856],[-0.53468759,42.47743523],[-0.53475424,42.47710007],[-0.53519193,42.4768521],[-0.53520747,42.47645644],[-0.53551231,42.47618581],[-0.53598758,42.47566145],[-0.53651163,42.47525693],[-0.53719136,42.47497456],[-0.53770299,42.47488656],[-0.5381422,42.47459901],[-0.53848538,42.47403221],[-0.53857408,42.47381632],[-0.53844822,42.47361562],[-0.53778946,42.47336386],[-0.5376911,42.47314395],[-0.5379723,42.4727936],[-0.53845951,42.47264568],[-0.53878716,42.47247453],[-0.5389293,42.47225979],[-0.53891343,42.47198226],[-0.53892118,42.47178442],[-0.53924651,42.47167262],[-0.53948778,42.471658],[-0.53962527,42.47156196],[-0.53968491,42.47140485],[-0.53977051,42.47126809],[-0.54004393,42.47111556],[-0.5401028,42.47097823],[-0.54019381,42.47070299],[-0.54047731,42.47029329],[-0.54086613,42.46992545],[-0.54114109,42.46973336],[-0.54122668,42.4695966],[-0.54121622,42.46918059],[-0.54146988,42.46884944],[-0.54177621,42.46853922],[-0.54184281,42.46820406],[-0.54188192,42.46788811],[-0.54239426,42.4677803],[-0.54304407,42.46757645],[-0.54318851,42.46730236],[-0.54317417,42.46698526],[-0.54344215,42.46697121],[-0.54395055,42.46712808],[-0.54438938,42.46736771],[-0.54537263,42.46752739],[-0.54605653,42.46781924],[-0.54680316,42.46787483],[-0.54776258,42.46788742],[-0.54827048,42.46796566],[-0.54876814,42.4682337],[-0.54909698,42.46871593],[-0.54953117,42.46924001],[-0.54959898,42.46955826],[-0.54953163,42.46991321],[-0.54976286,42.47015575],[-0.55021096,42.47032373],[-0.55068655,42.4704725],[-0.55168501,42.47092944],[-0.55222535,42.47147558],[-0.55288492,42.47170747],[-0.55335282,42.47205406],[-0.55357586,42.47182123],[-0.55376677,42.47172631],[-0.55394766,42.47188857],[-0.55444845,42.47207746],[-0.55470412,42.47237991],[-0.5551286,42.47246817],[-0.55537758,42.47225569],[-0.55557465,42.4720025],[-0.55622215,42.47185793],[-0.55686888,42.47173313],[-0.5576942,42.47182993],[-0.55787357,42.47203175],[-0.55905994,42.47247283],[-0.55943483,42.47246103],[-0.55992506,42.47223388],[-0.5601327,42.4723967],[-0.5601425,42.4728325],[-0.56039052,42.47333277],[-0.55758405,42.47741105],[-0.55919351,42.47797995],[-0.56016773,42.4783769],[-0.56150016,42.47850428],[-0.56289066,42.47851408],[-0.56464393,42.47813559],[-0.56617265,42.47802949],[-0.56730049,42.47791486],[-0.56842372,42.47791891],[-0.56867258,42.47839938],[-0.56829526,42.47916355],[-0.56831422,42.48005493],[-0.56838817,42.48090788],[-0.56848741,42.48110799],[-0.56870276,42.48107296],[-0.57101873,42.48205268],[-0.57132567,42.48241558],[-0.57131496,42.48269255],[-0.57141115,42.48297178],[-0.57172269,42.48321598],[-0.57214115,42.48346245],[-0.57251458,42.48349016],[-0.5727055,42.48339521],[-0.57287964,42.48304251],[-0.57273916,42.48252475],[-0.57283618,42.48209122],[-0.57284918,42.4817549],[-0.57267663,42.48137505],[-0.57229103,42.48097089],[-0.57195966,42.48054807],[-0.57213532,42.48015581],[-0.57243926,42.47990486],[-0.57279817,42.47961547],[-0.57290409,42.47918153],[-0.57311282,42.47908755],[-0.57345949,42.4791147],[-0.57393367,42.47930294],[-0.57459265,42.47955449],[-0.57525087,42.47982582],[-0.57582739,42.48013502],[-0.57643064,42.48044478],[-0.57703313,42.48077432],[-0.57763563,42.48110386],[-0.57791206,42.48156509],[-0.57830686,42.48173184],[-0.57865203,42.48179853],[-0.57900024,42.48178609],[-0.57929958,42.48165382],[-0.57942483,42.48187427],[-0.58015565,42.4823451],[-0.58014726,42.48256272],[-0.58008541,42.4827792],[-0.58015644,42.4830183],[-0.58014499,42.48331505],[-0.58027253,42.48347614],[-0.58018396,42.48369207],[-0.58036342,42.48389385],[-0.58038176,42.48411203],[-0.58066357,42.48443478],[-0.58070711,42.48469309],[-0.58061625,42.48496837],[-0.58061015,42.48512664],[-0.58081101,42.48546747],[-0.58085761,42.48564665],[-0.58082096,42.48590327],[-0.58110736,42.48610731],[-0.58118144,42.48626727],[-0.58117381,42.48646511],[-0.58113717,42.48672173],[-0.58125862,42.48704108],[-0.58124337,42.48743676],[-0.58141446,42.48785615],[-0.58177191,42.48829929],[-0.58202624,42.48864125],[-0.582011,42.48903692],[-0.58175746,42.48936816],[-0.58166431,42.48970278],[-0.58191865,42.49004475],[-0.58195763,42.49042176],[-0.58228226,42.4910226],[-0.58290475,42.49153072],[-0.58300253,42.49177038],[-0.58296818,42.49196765],[-0.58277115,42.49222089],[-0.5823656,42.49233112],[-0.58222508,42.49250635],[-0.58229156,42.49286415],[-0.58222818,42.4931202],[-0.58177454,42.49378381],[-0.58151717,42.49421396],[-0.58098865,42.49473738],[-0.58092145,42.49509236],[-0.58078092,42.49526758],[-0.58053041,42.49551969],[-0.58057472,42.49575821],[-0.58012715,42.49626354],[-0.57979032,42.49667222],[-0.57937321,42.49664571],[-0.57940079,42.49718238],[-0.57946469,42.49802956],[-0.57987924,42.49813363],[-0.5806293,42.49830434],[-0.58141428,42.49840431],[-0.58248373,42.49822437],[-0.5831152,42.49813048],[-0.58385235,42.49780055],[-0.58423057,42.4975941],[-0.58466946,42.49748423],[-0.58491624,42.49734647],[-0.58508626,42.4971118],[-0.58559291,42.49687816],[-0.58583947,42.4967822],[-0.5860187,42.49672641],[-0.58633302,42.49690623],[-0.58679727,42.49699299],[-0.58738876,42.49710076],[-0.58774081,42.49715583],[-0.58810711,42.49725885],[-0.58850467,42.49738635],[-0.58890132,42.49753766],[-0.58973411,42.49765049],[-0.59025853,42.49782831],[-0.59068782,42.49796839],[-0.59113746,42.4981293],[-0.5917526,42.49834168],[-0.59225039,42.49853914],[-0.59264168,42.49865278],[-0.59332333,42.4989292],[-0.59364139,42.49903118],[-0.59396174,42.49907365],[-0.59440849,42.49917834],[-0.59490305,42.49929594],[-0.59513321,42.49936012],[-0.59531454,42.49946365],[-0.59560171,42.49954888],[-0.59602965,42.49972464],[-0.59615104,42.4999178],[-0.59653802,42.4999021],[-0.59689602,42.49980239],[-0.59731563,42.49977546],[-0.59815335,42.49934033],[-0.59844655,42.49925118],[-0.59900847,42.49936245],[-0.5993964,42.49930259],[-0.59965267,42.49909169],[-0.59961918,42.49896307],[-0.60002818,42.4988153],[-0.60051177,42.49872594],[-0.60085722,42.49873318],[-0.60135186,42.49885724],[-0.60169731,42.49886447],[-0.60216008,42.49881731],[-0.60274397,42.49861634],[-0.60295507,42.49862076],[-0.60314428,42.49869579],[-0.60323318,42.49888241],[-0.6033764,42.49915546],[-0.60358155,42.4993161],[-0.60380967,42.49937772],[-0.60413702,42.49935614],[-0.6046025,42.49923796],[-0.60492876,42.49924478],[-0.60513592,42.4993702],[-0.60548106,42.49976708],[-0.60577825,42.49996812],[-0.60614741,42.50009889],[-0.60683856,42.5001441],[-0.60720772,42.50027486],[-0.60761588,42.50050881],[-0.60794213,42.50054415],[-0.60848004,42.50034246],[-0.60911503,42.50040699],[-0.60955224,42.50026405],[-0.60979036,42.50008365],[-0.61036494,42.49997163],[-0.61073439,42.50008909],[-0.61109587,42.50042781],[-0.61170023,42.50096151],[-0.61214664,42.50121879],[-0.61251739,42.50130856],[-0.61302085,42.50127753],[-0.6132854,42.50151939],[-0.61345722,42.50173831],[-0.61383069,42.50175635],[-0.61431612,42.50167526],[-0.61454339,42.50177981],[-0.61488717,42.50203471],[-0.61509327,42.50213234],[-0.61563062,42.50216299],[-0.61610988,42.5021404],[-0.6164279,42.5023334],[-0.61678247,42.50248434],[-0.61760179,42.50243986],[-0.61877078,42.50231036],[-0.61954933,42.50224451],[-0.6201071,42.50215356],[-0.62049287,42.50221284],[-0.6207632,42.50239278],[-0.6209335,42.50265268],[-0.62064101,42.50305677],[-0.620619,42.50327165],[-0.62088156,42.50365651],[-0.62111642,42.5039401],[-0.62144683,42.50409893],[-0.62176384,42.504295],[-0.62229061,42.50450611],[-0.62256484,42.50458359],[-0.62282678,42.50461978],[-0.62314489,42.50463664],[-0.62373277,42.50439496],[-0.6242527,42.50465963],[-0.62464846,42.50482165],[-0.6250912,42.50484109],[-0.6255351,42.50482978],[-0.62602789,42.50485608],[-0.62625951,42.50484662],[-0.62663605,42.50466803],[-0.62684853,42.50455938],[-0.6271165,42.50460771],[-0.62750912,42.50503476],[-0.62763789,42.50508908],[-0.62802249,42.5051113],[-0.62838405,42.50523286],[-0.62857015,42.50540783],[-0.62885362,42.5055563],[-0.6291203,42.50567313],[-0.62937301,42.50558131],[-0.62962734,42.50545803],[-0.62979584,42.50539999],[-0.63009701,42.50549851],[-0.63024879,42.5055709],[-0.63044252,42.50566329],[-0.63067242,42.50567448],[-0.63138003,42.50550876],[-0.63190265,42.50544827],[-0.63246271,42.50541707],[-0.63307892,42.5054298],[-0.6333496,42.50540688],[-0.6338947,42.50526129],[-0.63429963,42.50525539],[-0.63500568,42.50544109],[-0.63565343,42.50563984],[-0.63602554,42.50567432],[-0.63669135,42.50548639],[-0.63689983,42.50529481],[-0.63700954,42.50494059],[-0.63709301,42.5047712],[-0.63734871,42.50463388],[-0.63752202,42.50463745],[-0.63781006,42.50456065],[-0.63793932,42.50444026],[-0.63790937,42.50407506],[-0.63799123,42.50394841],[-0.63836139,42.50384197],[-0.63857106,42.50390333],[-0.63896096,42.50429638],[-0.63928296,42.50444561],[-0.63956966,42.50450856],[-0.63982161,42.50447097],[-0.64013768,42.50420871],[-0.64029663,42.50413853],[-0.64043089,42.50415556],[-0.64094653,42.50428025],[-0.6413582,42.50418259],[-0.64143592,42.50395859],[-0.64160864,42.50378783],[-0.64194792,42.50361024],[-0.64241107,42.50308655],[-0.64282192,42.50270208],[-0.64308247,42.50260208],[-0.64345952,42.50228385],[-0.64375841,42.50197303],[-0.64394188,42.50159228],[-0.64408535,42.50120711],[-0.644286,42.50091947],[-0.64480477,42.5005213],[-0.64511679,42.50041156],[-0.64543819,42.50034342],[-0.64559518,42.50033343],[-0.64559579,42.50035927],[-0.64568409,42.50040611],[-0.64589561,42.50044467],[-0.64645042,42.50051281],[-0.64683975,42.50054782],[-0.64701975,42.50055062],[-0.64738631,42.50051133],[-0.64770676,42.50043596],[-0.64789173,42.5003389],[-0.6479702,42.50025857],[-0.64811895,42.50008872],[-0.64816999,42.50002583],[-0.64828064,42.49986601],[-0.64840159,42.49972352],[-0.6485902,42.49962653],[-0.64881617,42.49957173],[-0.64903241,42.49951674],[-0.64927068,42.49949101],[-0.64951236,42.49947166],[-0.64974863,42.4994666],[-0.64990172,42.49960302],[-0.65003286,42.49974079],[-0.6501972,42.49986933],[-0.65037295,42.4999855],[-0.65059522,42.50002968],[-0.65066441,42.49986842],[-0.65066515,42.49986694],[-0.65092218,42.49948332],[-0.65138274,42.49933071],[-0.65169226,42.49916254],[-0.65228002,42.49921199],[-0.6528397,42.49911127],[-0.65330305,42.49888391],[-0.65383092,42.49873267],[-0.65442287,42.49867],[-0.65452006,42.49861173],[-0.65490536,42.49838071],[-0.65516065,42.49831114],[-0.65542823,42.49813884],[-0.6557317,42.49782909],[-0.65604268,42.4976925],[-0.65657301,42.49728639],[-0.65656448,42.49708369],[-0.65662208,42.4968347],[-0.65690133,42.49644834],[-0.65689153,42.4959306],[-0.65701846,42.49565286],[-0.65714378,42.49541822],[-0.65693771,42.49528054],[-0.65665306,42.49514367],[-0.65660881,42.49503555],[-0.65681692,42.49480773],[-0.65687907,42.49469559],[-0.65723607,42.49461951],[-0.65737586,42.49432454],[-0.65742822,42.49404393],[-0.65766221,42.49398491],[-0.65838205,42.49410685],[-0.6593467,42.49416941],[-0.65987321,42.49411548],[-0.66048064,42.49423571],[-0.66070554,42.49445594],[-0.66108816,42.49464505],[-0.66171901,42.49462759],[-0.66247605,42.49464304],[-0.66285537,42.49462922],[-0.66348471,42.49494395],[-0.66394657,42.4950612],[-0.66467369,42.49509759],[-0.6650442,42.49532078],[-0.66588619,42.49540264],[-0.66605626,42.4955539],[-0.66634807,42.49551987],[-0.66667797,42.49526782],[-0.66714866,42.49514803],[-0.66776253,42.49509584],[-0.66898545,42.49512073],[-0.66971018,42.49522174],[-0.67017926,42.49514502],[-0.67070738,42.49504794],[-0.6710875,42.49501255],[-0.67154618,42.49521595],[-0.67197894,42.49533257],[-0.67259041,42.49534499],[-0.67322779,42.4954442],[-0.67397926,42.49561041],[-0.67453409,42.49557855],[-0.67543674,42.49559688],[-0.67689102,42.49566951],[-0.67782598,42.49560222],[-0.67873023,42.49557742],[-0.67930541,42.49578315],[-0.68027947,42.49623417],[-0.68111354,42.49653139],[-0.6814534,42.49679704],[-0.68218534,42.49670403],[-0.68285825,42.49663139],[-0.68326988,42.4965319],[-0.68402696,42.49654721],[-0.68481315,42.4965631],[-0.68539313,42.49663952],[-0.68574891,42.4964742],[-0.6865674,42.49640448],[-0.68746768,42.49648735],[-0.68834361,42.49644034],[-0.6896579,42.49635904],[-0.69042053,42.49622347],[-0.69120038,42.49641171],[-0.69178671,42.49631571],[-0.69271216,42.49650687],[-0.69283814,42.49625064],[-0.69302157,42.49601713],[-0.69358511,42.49574814],[-0.69425721,42.49569698],[-0.69469793,42.49559803],[-0.69615463,42.49560578],[-0.69670233,42.49576775],[-0.69699668,42.49568741],[-0.69738313,42.49547954],[-0.6979726,42.49529731],[-0.69847631,42.49507023],[-0.69892809,42.49466958],[-0.69914377,42.49435045],[-0.69981269,42.49438546],[-0.70039346,42.49444025],[-0.70109149,42.49447582],[-0.70141652,42.49435296],[-0.70168016,42.49431512],[-0.70212087,42.49421615],[-0.70270164,42.49427092],[-0.70296528,42.49423308],[-0.70334775,42.49413293],[-0.70359174,42.49383593],[-0.70388212,42.49386331],[-0.70428897,42.49389303],[-0.70466908,42.49385752],[-0.70522783,42.49371777],[-0.70558512,42.49350929],[-0.706051,42.49351862],[-0.70659477,42.49378828],[-0.70725817,42.49397407],[-0.70781771,42.49381276],[-0.70829145,42.4936066],[-0.70889977,42.49370503],[-0.70948134,42.49373822],[-0.71020848,42.49377433],[-0.71064603,42.49376151],[-0.71088605,42.49357223],[-0.71150066,42.49349825],[-0.71219948,42.49351222],[-0.71260712,42.49352036],[-0.71286918,42.49352559],[-0.71308007,42.49333572],[-0.71348614,42.49338696],[-0.7139284,42.49324484],[-0.71405272,42.49303168],[-0.71438086,42.49282259],[-0.71462558,42.492504],[-0.71475382,42.4921831],[-0.71513391,42.49214755],[-0.71537783,42.49185052],[-0.71572802,42.49183594],[-0.71639064,42.49204323],[-0.71670387,42.49224356],[-0.71708317,42.49222955],[-0.71732003,42.49212645],[-0.71778982,42.492028],[-0.71810697,42.49212057],[-0.71837372,42.4919965],[-0.7186342,42.49204482],[-0.71898439,42.49203023],[-0.71925506,42.49179841],[-0.71972485,42.49169994],[-0.71988453,42.49131496],[-0.72038343,42.49121707],[-0.72059351,42.49104874],[-0.72071936,42.49079248],[-0.72092788,42.49066724],[-0.72113247,42.49064975],[-0.72122163,42.49093513],[-0.72155435,42.49106786],[-0.72166142,42.49132876],[-0.72174257,42.49161511],[-0.72211086,42.49179055],[-0.72230606,42.49203164],[-0.72314264,42.49226392],[-0.72349204,42.49227086],[-0.72366831,42.49223124],[-0.72415548,42.49245656],[-0.72476225,42.492598],[-0.72487012,42.49283736],[-0.72521875,42.49286584],[-0.72547768,42.49295724],[-0.72581927,42.49317967],[-0.72646064,42.49317083],[-0.72692652,42.49318008],[-0.72744986,42.49321203],[-0.72796773,42.49339482],[-0.72831324,42.4935095],[-0.72874845,42.49356126],[-0.72923019,42.4939374],[-0.72942387,42.49422157],[-0.72971349,42.49427045],[-0.73005667,42.49444977],[-0.73051788,42.49458829],[-0.73088785,42.49483282],[-0.73114056,42.4950966],[-0.73160022,42.49527822],[-0.73194185,42.49550063],[-0.73236772,42.49581096],[-0.73279282,42.49614284],[-0.73301643,42.49640604],[-0.73327616,42.49647587],[-0.73341397,42.49669424],[-0.73346676,42.49684624],[-0.73407204,42.49703073],[-0.73441369,42.49725313],[-0.73505977,42.49711496],[-0.73645673,42.49716414],[-0.73709347,42.49728454],[-0.73772478,42.49755579],[-0.73842288,42.49759114],[-0.73942149,42.49737364],[-0.74017706,42.49743168],[-0.74060997,42.49754805],[-0.74112171,42.49790317],[-0.74138146,42.49797299],[-0.7417639,42.49787271],[-0.74208733,42.49779283],[-0.74251792,42.49797383],[-0.74291397,42.4983051],[-0.74328555,42.4985065],[-0.74345174,42.49874698],[-0.74347389,42.4989415],[-0.74365602,42.49954888],[-0.74379232,42.49981034],[-0.74389795,42.50011432],[-0.74419348,42.5008102],[-0.74443696,42.50133253],[-0.74402815,42.50216549],[-0.74355952,42.50304038],[-0.74319532,42.50344293],[-0.74288935,42.50384662],[-0.74264318,42.50420836],[-0.74215859,42.50471634],[-0.74197143,42.50505769],[-0.74170001,42.5053111],[-0.74138859,42.50586563],[-0.74063176,42.50664858],[-0.74015413,42.50696261],[-0.73951805,42.50723484],[-0.73878877,42.50764728],[-0.73731232,42.50817879],[-0.73694727,42.50860286],[-0.73626589,42.50896731],[-0.73723519,42.50944593],[-0.73754134,42.50994245],[-0.73785474,42.51012531],[-0.7384563,42.51041119],[-0.73937687,42.51122754],[-0.73988039,42.51199992],[-0.74128289,42.5128496],[-0.74190272,42.51307626],[-0.74259359,42.5135664],[-0.74384642,42.51499684],[-0.74376619,42.51543605],[-0.74392323,42.51605754],[-0.74426037,42.51647031],[-0.74443866,42.51692125],[-0.74485285,42.51745885],[-0.74555516,42.51808025],[-0.74606651,42.5186266],[-0.74644161,42.51895544],[-0.74710423,42.51905438],[-0.74743166,42.51918935],[-0.7475111,42.51966744],[-0.74796966,42.51990281],[-0.74831713,42.52054103],[-0.74829574,42.52113627],[-0.74847175,42.52161625],[-0.74882334,42.52204608],[-0.74909183,42.52237908],[-0.74907144,42.52285509],[-0.74875112,42.52325384],[-0.74831839,42.52409116],[-0.74852104,42.52472654],[-0.74884063,42.52524509],[-0.7487448,42.525851],[-0.74865925,42.52670683],[-0.74898705,42.52746218],[-0.74828163,42.52735463],[-0.74768655,42.52733101],[-0.74663781,42.52738186],[-0.74615197,42.52745569],[-0.7456895,42.52732745],[-0.74512746,42.52728065],[-0.74420055,42.52752111],[-0.74260551,42.5275407],[-0.74175828,42.52780991],[-0.74133294,42.52799213],[-0.74050866,42.52807117],[-0.7385178,42.52834162],[-0.73744115,42.5282727],[-0.73629367,42.52838107],[-0.73523269,42.52832435],[-0.73437174,42.52808097],[-0.73379689,42.52749777],[-0.73368105,42.52713808],[-0.73321775,42.52703361],[-0.73217289,42.52697718],[-0.73146171,42.52704649],[-0.7315917,42.52744246],[-0.73147616,42.52796435],[-0.73116921,42.52843479],[-0.73076913,42.52880808],[-0.73023856,42.52922644],[-0.73006725,42.52950896],[-0.72998648,42.52996005],[-0.72980999,42.53038543],[-0.72989362,42.53074447],[-0.72947341,42.53078379],[-0.72853814,42.5308129],[-0.7280475,42.5310176],[-0.72790665,42.53134838],[-0.7279994,42.53203582],[-0.72821784,42.53223076],[-0.7282779,42.53235108],[-0.72827143,42.53252965],[-0.7282171,42.53269535],[-0.7279009,42.53297499],[-0.72769005,42.53345924],[-0.7277971,42.53361624],[-0.72782455,42.53374783],[-0.72780413,42.53386655],[-0.72750576,42.5340989],[-0.72735225,42.53433411],[-0.72742539,42.53453808],[-0.72730797,42.53466679],[-0.72701823,42.53466104],[-0.72679374,42.53463276],[-0.72627163,42.53437222],[-0.72595359,42.53425869],[-0.72569864,42.53418215],[-0.72532972,42.53413908],[-0.72507044,42.53418159],[-0.72488931,42.53426008],[-0.72496392,42.53445347],[-0.72514627,42.53475492],[-0.72542131,42.53516543],[-0.72542833,42.53541574],[-0.72549714,42.53573876],[-0.72544452,42.53585685],[-0.72502168,42.53596757],[-0.72453445,42.53607703],[-0.72411161,42.53618775],[-0.72396284,42.53629202],[-0.72366963,42.53638149],[-0.72232623,42.5365573],[-0.72205301,42.53653995],[-0.72175106,42.53642673],[-0.72154917,42.53622019],[-0.72105796,42.53599598],[-0.72086436,42.53600404],[-0.72106849,42.53659184],[-0.72099674,42.53679294],[-0.72057915,42.53720158],[-0.72024074,42.53764754],[-0.72014422,42.53808641],[-0.72023047,42.53881482],[-0.72023059,42.53969639],[-0.72030941,42.54018639],[-0.7203782,42.54050941],[-0.720373,42.54065226],[-0.72018601,42.54136333],[-0.7202831,42.54179413],[-0.72041498,42.54215414],[-0.72040588,42.54240414],[-0.72038941,42.54285651],[-0.72041251,42.54310714],[-0.72035814,42.54327284],[-0.72005059,42.54375515],[-0.7199984,42.54386133],[-0.71996676,42.54415197],[-0.72058732,42.54480763],[-0.72104862,42.54541246],[-0.72129148,42.54582234],[-0.72096689,42.54588735],[-0.71945963,42.54569057],[-0.71840054,42.54557416],[-0.71715261,42.54533486],[-0.71632067,42.54517531],[-0.71575499,42.54478282],[-0.71527898,42.54458271],[-0.71454798,42.54430604],[-0.71365427,42.54407376],[-0.71307906,42.54394314],[-0.71214968,42.54380545],[-0.71153358,42.54391227],[-0.71073213,42.54291938],[-0.71034925,42.54281642],[-0.7099655,42.54273727],[-0.70910315,42.54252942],[-0.70823994,42.54234536],[-0.70740893,42.54216195],[-0.70642043,42.54188006],[-0.70612667,42.54167821],[-0.70546665,42.54166499],[-0.70307808,42.54134311],[-0.70296551,42.54045928],[-0.70328796,42.54001306],[-0.70411597,42.53939827],[-0.70390724,42.53850061],[-0.70208045,42.53823762],[-0.70131733,42.538401],[-0.70057642,42.53839804],[-0.70018353,42.53856884],[-0.70004557,42.53881625],[-0.69997848,42.53932715],[-0.69986922,42.53967044],[-0.6995729,42.53984318],[-0.69935532,42.54006516],[-0.69927737,42.5404329],[-0.69875865,42.54095856],[-0.69818735,42.54116151],[-0.69808771,42.5412429],[-0.69768098,42.54091307],[-0.69686524,42.54075371],[-0.6965677,42.54052138],[-0.69651207,42.540282],[-0.69618322,42.54002521],[-0.69565912,42.53938328],[-0.69559867,42.53927484],[-0.69539245,42.53905038],[-0.69513195,42.53882467],[-0.69471825,42.5386853],[-0.69493277,42.53854666],[-0.69473534,42.53822103],[-0.69456058,42.53771717],[-0.6938208,42.5368088],[-0.69331666,42.53650082],[-0.69319064,42.53638211],[-0.69296003,42.53612433],[-0.69283947,42.53601377],[-0.69211086,42.536],[-0.69213354,42.53582176],[-0.69187042,42.53553055],[-0.69133952,42.53463828],[-0.69105901,42.53438245],[-0.69090683,42.53414112],[-0.69029005,42.53383086],[-0.68978025,42.53367762],[-0.68962412,42.53354342],[-0.68946814,42.53296845],[-0.68883047,42.5327888],[-0.68836165,42.53239812],[-0.68840351,42.53213688],[-0.6888539,42.5317171],[-0.68931028,42.53157144],[-0.68974632,42.53110372],[-0.69046065,42.53095134],[-0.69103613,42.53107016],[-0.6917474,42.53100111],[-0.69223771,42.53080847],[-0.69292204,42.53059591],[-0.69299913,42.53025199],[-0.69334282,42.53010404],[-0.69370568,42.52987309],[-0.69397284,42.52961638],[-0.69441835,42.52932752],[-0.69455544,42.52910394],[-0.69466252,42.52882018],[-0.6946959,42.52859953],[-0.6946017,42.52834729],[-0.69444302,42.52806044],[-0.69437295,42.52794646],[-0.69416736,42.52777663],[-0.69395009,42.52762637],[-0.69375244,42.52750533],[-0.6936712,42.52746317],[-0.6933491,42.52738284],[-0.69282053,42.5273875],[-0.69250381,42.52745856],[-0.69202225,42.52764156],[-0.69160455,42.52780965],[-0.69120787,42.52793583],[-0.6908373,42.52804722],[-0.69048606,42.52816261],[-0.68995401,42.52826174],[-0.68944011,42.52826488],[-0.68905189,42.52816159],[-0.688939,42.52808637],[-0.68892482,42.52800864],[-0.68905522,42.52774112],[-0.68941854,42.52749631],[-0.6897139,42.52731136],[-0.68983324,42.52707963],[-0.69005317,42.52679411],[-0.69015803,42.52669086],[-0.69024231,42.52645213],[-0.69035291,42.52619321],[-0.6904526,42.52596559],[-0.69052402,42.52564644],[-0.6903488,42.52534664],[-0.68995436,42.5250163],[-0.68962685,42.52471973],[-0.68937527,42.52447692],[-0.68917609,42.5242991],[-0.68880221,42.52393946],[-0.68861898,42.52375836],[-0.6884082,42.523565],[-0.6881965,42.52336351],[-0.68802941,42.52317373],[-0.68777074,42.52285963],[-0.68754114,42.52261546],[-0.68748704,42.52256394],[-0.68726017,42.52234504],[-0.68694758,42.52204065],[-0.68657882,42.52165765],[-0.68590908,42.52147733],[-0.68485927,42.52112255],[-0.6845696,42.5211167],[-0.68365031,42.52071689],[-0.68301629,42.52044198],[-0.6824762,42.52024044],[-0.68187349,42.51998998],[-0.68159528,42.51967461],[-0.68129384,42.51912052],[-0.68133292,42.51893069],[-0.68137744,42.51859803],[-0.68076683,42.51856184],[-0.68006143,42.51847607],[-0.67942355,42.51856912],[-0.67922377,42.51848293],[-0.6790073,42.51824028],[-0.67891956,42.51800024],[-0.67899539,42.51769204],[-0.67913647,42.51736133],[-0.67954118,42.51686918],[-0.6796439,42.51670448],[-0.67945521,42.51658153],[-0.67922993,42.51657696],[-0.67922288,42.51676743],[-0.67872426,42.5171862],[-0.67849016,42.51741971],[-0.67825958,42.51755799],[-0.67833761,42.51805992],[-0.67819829,42.51834301],[-0.6777702,42.51859642],[-0.6773161,42.51868251],[-0.67670196,42.51874154],[-0.67635941,42.51842485],[-0.67606015,42.51859512],[-0.67550497,42.51888403],[-0.67564872,42.51848191],[-0.67368323,42.51937122],[-0.67428539,42.52050328],[-0.67335115,42.52050813],[-0.67274671,42.52030524],[-0.67236315,42.52022597],[-0.67197782,42.52019431],[-0.67156175,42.52004054],[-0.67124344,42.51993876],[-0.67099171,42.51977878],[-0.67061335,42.51964239],[-0.67036385,42.51942288],[-0.66865632,42.51943579],[-0.66838438,42.51895373],[-0.66806963,42.51875671],[-0.66729456,42.51881241],[-0.66693256,42.51901947],[-0.66698186,42.51942552],[-0.66692841,42.51999625],[-0.66693134,42.52078258],[-0.66704856,42.5210947],[-0.66718201,42.52183603],[-0.66738161,42.52253105],[-0.66757276,42.52293764],[-0.66655993,42.52332205],[-0.66648537,42.52359453],[-0.66629859,42.52385281],[-0.66617928,42.52402908],[-0.66615521,42.52424302],[-0.66581415,42.52431946],[-0.66539554,42.52449383],[-0.66505392,42.52463613],[-0.66464212,42.52465296],[-0.66437379,42.52481228],[-0.66406643,42.52497478],[-0.6637692,42.52517124],[-0.66371104,42.52500327],[-0.66346787,42.52504597],[-0.66336332,42.52525826],[-0.66324711,42.5253512],[-0.66302136,42.52535851],[-0.66287163,42.52548649],[-0.6626794,42.52545874],[-0.66248495,42.52549051],[-0.66226053,42.52546211],[-0.66178394,42.5252856],[-0.66138827,42.52509882],[-0.66117229,42.52484424],[-0.66086963,42.52475467],[-0.66065366,42.52450008],[-0.66013325,42.52420354],[-0.66000975,42.52362919],[-0.65942453,42.52334323],[-0.65922519,42.52350594],[-0.65904506,42.52358565],[-0.65875627,42.52355592],[-0.65847638,42.52328811],[-0.65847008,42.5230259],[-0.65775258,42.52283253],[-0.65721217,42.52307165],[-0.65692784,42.52292288],[-0.65655948,42.52286769],[-0.65584784,42.52294843],[-0.65597958,42.52335475],[-0.6560524,42.52358176],[-0.65602029,42.52389682],[-0.65603273,42.52410756],[-0.65625284,42.5247435],[-0.65658799,42.52502098],[-0.65712962,42.52521247],[-0.65756352,42.52556714],[-0.65812715,42.52571397],[-0.65919808,42.52642744],[-0.65941756,42.52653717],[-0.65971941,42.52661851],[-0.65980488,42.52680322],[-0.66009745,42.52683671],[-0.66036149,42.52684211],[-0.66069723,42.52710455],[-0.66091841,42.5271692],[-0.66175744,42.52756219],[-0.66200117,42.52756717],[-0.66279945,42.52741809],[-0.66310355,42.52743933],[-0.66340205,42.52761079],[-0.66387214,42.52808645],[-0.6638671,42.52822165],[-0.66390044,42.52841778],[-0.66402567,42.52855116],[-0.66482243,42.52876734],[-0.6654476,42.52890036],[-0.66562704,42.52899422],[-0.6657599,42.52926733],[-0.66591492,42.52945112],[-0.66671562,42.52978315],[-0.66718576,42.53025879],[-0.66745838,42.53058007],[-0.66799785,42.5308316],[-0.66866833,42.53138649],[-0.66872577,42.5319371],[-0.66852651,42.53246607],[-0.66797546,42.53307125],[-0.66863244,42.53357919],[-0.66875234,42.53381989],[-0.66871969,42.53419996],[-0.66860408,42.53434105],[-0.66875795,42.53453479],[-0.66868825,42.53467633],[-0.66855594,42.53476894],[-0.66861412,42.53493691],[-0.66893427,42.53499108],[-0.66911414,42.53535213],[-0.66949069,42.53562188],[-0.66971072,42.53576931],[-0.66996738,42.53579836],[-0.66989768,42.5359399],[-0.67008605,42.5362748],[-0.67006515,42.53663426],[-0.66985428,42.53710649],[-0.66935278,42.53759663],[-0.66901364,42.53793349],[-0.66916116,42.53826718],[-0.66868103,42.53836361],[-0.66828514,42.53838934],[-0.66797695,42.53842652],[-0.66756684,42.53848334],[-0.66736454,42.53848163],[-0.66721831,42.53846417],[-0.66701907,42.53838046],[-0.66653243,42.53821365],[-0.66632522,42.53816839],[-0.66603432,42.53817936],[-0.66563832,42.53820736],[-0.66526517,42.53819988],[-0.6649398,42.53816155],[-0.66471717,42.53809758],[-0.6645219,42.53801832],[-0.66430405,42.5379703],[-0.66406301,42.53796934],[-0.66386939,42.53798917],[-0.66371817,42.53802174],[-0.66337649,42.53813363],[-0.66324819,42.53826967],[-0.66314991,42.53831918],[-0.66306367,42.53833326],[-0.6629503,42.53831576],[-0.6628074,42.53837682],[-0.66243571,42.53863693],[-0.6614611,42.53892653],[-0.66112584,42.53857896],[-0.66088701,42.53851862],[-0.66073742,42.53850764],[-0.6604696,42.53850613],[-0.66028921,42.53854891],[-0.66007319,42.53864858],[-0.66002921,42.53882201],[-0.66002046,42.53891295],[-0.66003743,42.53903216],[-0.65985051,42.53901645],[-0.6595209,42.53895708],[-0.65905076,42.53891295],[-0.65858487,42.53890738],[-0.65851395,42.53894159],[-0.658475,42.53898041],[-0.65842162,42.53897536],[-0.65812642,42.53884651],[-0.65794469,42.5388214],[-0.65776745,42.53884709],[-0.65760655,42.53885172],[-0.65736089,42.53883085],[-0.65687573,42.53875543],[-0.65664784,42.53870137],[-0.65640961,42.53862518],[-0.65614996,42.53854855],[-0.65601732,42.53851414],[-0.65584676,42.53849084],[-0.65570236,42.53848392],[-0.65545066,42.53848586],[-0.65510413,42.53843601],[-0.65495439,42.53842899],[-0.65484673,42.53844263],[-0.65485594,42.53833981],[-0.65486109,42.537916],[-0.65479176,42.5376214],[-0.65469509,42.53748471],[-0.65456393,42.53741071],[-0.65419203,42.53732782],[-0.65396942,42.53726383],[-0.65371617,42.53715959],[-0.65343557,42.53707065],[-0.65289264,42.53669106],[-0.65269828,42.53658803],[-0.65246096,42.53648808],[-0.65219121,42.53639539],[-0.65190422,42.53633404],[-0.6517011,42.53632195],[-0.65148668,42.53632548],[-0.65129249,42.53636112],[-0.65116714,42.53639225],[-0.65095614,42.53647307],[-0.65062649,42.53669214],[-0.6505239,42.53713838],[-0.65064135,42.53762598],[-0.65025142,42.53837086],[-0.64988031,42.53861421],[-0.64910981,42.53864859],[-0.64976156,42.53911467],[-0.6499219,42.53917813],[-0.64956584,42.53927111],[-0.64932655,42.53949942],[-0.64965168,42.53987455],[-0.64963964,42.5401952],[-0.64995958,42.54034216],[-0.65019672,42.54052753],[-0.6502991,42.54069007],[-0.65029008,42.54093056],[-0.65041731,42.54115379],[-0.6506281,42.54131856],[-0.65062209,42.54147889],[-0.65028109,42.54189307],[-0.6501343,42.5421909],[-0.64977672,42.54232395],[-0.64976318,42.54268468],[-0.64988816,42.54296803],[-0.64985204,42.54320797],[-0.64981666,42.54342785],[-0.64972783,42.54362659],[-0.65026235,42.54383812],[-0.65104379,42.54397449],[-0.65152561,42.54414482],[-0.65195548,42.54425391],[-0.65250128,42.54416482],[-0.65293341,42.54421379],[-0.65316831,42.54445928],[-0.65380675,42.54479325],[-0.65420952,42.54490179],[-0.65475308,42.5448728],[-0.65480203,42.5450142],[-0.65520556,42.54510269],[-0.65549358,42.54526565],[-0.65578071,42.54495401],[-0.65598318,42.5446172],[-0.65652073,42.54474854],[-0.6572706,42.54500455],[-0.65810627,42.54514198],[-0.65861523,42.54531284],[-0.65896456,42.5454002],[-0.65920465,42.54568992],[-0.66020544,42.54563889],[-0.66186014,42.54619686],[-0.66223228,42.54658567],[-0.66195959,42.54698515],[-0.66208216,42.54715443],[-0.66243367,42.54723309],[-0.66274499,42.54752535],[-0.66270568,42.54771516],[-0.66333454,42.54813303],[-0.66445327,42.54751255],[-0.66459006,42.5473009],[-0.66447725,42.54686973],[-0.664656,42.54639686],[-0.66598967,42.54692439],[-0.66695562,42.54694408],[-0.66765538,42.54805432],[-0.66729143,42.548309],[-0.66684623,42.54901471],[-0.66621581,42.54950221],[-0.6667561,42.54970383],[-0.66760952,42.55015008],[-0.66715721,42.55104625],[-0.66793384,42.5518245],[-0.66700915,42.55242515],[-0.66772092,42.55345104],[-0.6691795,42.55378189],[-0.67042027,42.5544931],[-0.66969937,42.55501382],[-0.66862419,42.55532669],[-0.66804946,42.55556581],[-0.6673887,42.5556862],[-0.66706277,42.55593052],[-0.66667711,42.55595613],[-0.66622048,42.55606394],[-0.66551449,42.55618339],[-0.66518855,42.55642771],[-0.66457426,42.55651557],[-0.66364213,42.5566304],[-0.66311765,42.55673682],[-0.66229671,42.5569041],[-0.66170752,42.55692554],[-0.66130053,42.55687509],[-0.66066981,42.55683742],[-0.66014783,42.55687695],[-0.65967483,42.55681709],[-0.65878604,42.55698297],[-0.65781117,42.55702996],[-0.65731074,42.55692115],[-0.6566604,42.55693949],[-0.6561698,42.55674542],[-0.65566855,42.55683554],[-0.65461012,42.55669675],[-0.65318425,42.55670101],[-0.65265094,42.55643911],[-0.65226715,42.55641452],[-0.65179793,42.55625432],[-0.65156615,42.55640014],[-0.65196377,42.55665926],[-0.65195875,42.556793],[-0.65147824,42.55693373],[-0.65082309,42.55690356],[-0.64978477,42.55683206]]]]},"geometry_name":"shape","properties":{"nombre":"Paisaje Protegido de San Juan de la Peña y Monte Oroel","objectid":14,"codigo":"ENP302","descripcio":"Paisaje Protegido de San Juan de la Peña y Monte Oroel","ctipfigura":"EP","csubtip":"PP","cespecie":"00","cestado":"A","enp_id":24001301,"superficie":9513.87071333,"cod_uicn":"V","latitud":42.516894,"longtud":-0.61547,"sitecode":"196194","sitename":"San Juan de la Peña y Monte Oroel","legalfoundationdate":"2007-01-29T23:00:00Z","legalfoundationdocument":"http://www.boa.aragon.es/cgi-bin/EBOA/BRSCGI?CMD=VEROBJ&MLKOB=177505530000","sitedesignation":"Protected Landscape","siteprotectionclassification":"natureConservation","designationscheme":"IUCN","designation":"protectedLandscapeOrSeascape","percentageunderdesignation":"100","codeara":"ENP302","observations":null,"localid":"196194","namespace":"EU.EUROPA.ENVIRONMENT.PS.CDDA.IEPNB.ESP.ESP","versionid":null,"essitecode":"ES241002","inspireid":"EU.EUROPA.ENVIRONMENT.PS.CDDA.IEPNB.ESP.ESP.196194","longitude":-0.61547,"latitude":42.516894,"site_code_nat":"ES241002","code24":"ENP302"},"bbox":[-0.74909183,42.46697121,-0.4836225,42.55702996]}],"totalFeatures":1,"numberMatched":1,"numberReturned":1,"timeStamp":"2026-08-17T03:43:07.284Z","crs":{"type":"name","properties":{"name":"urn:ogc:def:crs:EPSG::4326"}},"bbox":[-0.74909183,42.46697121,-0.4836225,42.55702996]}