{
  "type": "FeatureCollection",
  "metadata": {
    "estado": "satelital_aproximado",
    "es_ficticio": false,
    "es_perimetro_operativo": false,
    "tipo": "area_quemada_estimada",
    "aviso": "Área quemada estimada por satélite. No equivale al perímetro operativo, al porcentaje consolidado ni a una instrucción de seguridad.",
    "fecha_hora": "2026-08-16T15:23:00+02:00",
    "superficie_ha": 18640,
    "control_calidad": {
      "superficie_oficial_referencia_ha": 17500,
      "diferencia_pct": 6.5,
      "umbral_maximo_diferencia_pct": 40,
      "municipio_coincidente": "Peñas de Riglos, Las",
      "inicio_posterior_a": "2026-08-09"
    },
    "fuente": {
      "nombre": "EFFIS / Copernicus — áreas quemadas satelitales",
      "url": "https://maps.effis.emergency.copernicus.eu/effis?service=WFS&version=1.0.0&request=GetFeature&typeName=modis.ba.poly&srsName=EPSG%3A4326&bbox=-1.15%2C42.1%2C-0.25%2C42.72"
    },
    "licencia": "Copernicus EMS / EFFIS; reutilización con atribución"
  },
  "features": [
    {
      "type": "Feature",
      "properties": {
        "nombre": "Área quemada aproximada EFFIS — Las Peñas de Riglos",
        "tipo": "area_quemada_satelital",
        "superficie_ha": 18640,
        "fecha_inicio": "2026-08-10T13:53:00+02:00",
        "fecha_fin": "2026-08-16T15:23:00+02:00",
        "ultima_actualizacion_effis": "2026-08-11T08:52:57+02:00",
        "municipio": "Peñas de Riglos, Las",
        "provincia": "Huesca",
        "id_effis": "616227"
      },
      "geometry": {
        "type": "Polygon",
        "coordinates": [
          [
            [
              -0.694494,
              42.46128
            ],
            [
              -0.693505,
              42.461524
            ],
            [
              -0.69247,
              42.461804
            ],
            [
              -0.691391,
              42.46212
            ],
            [
              -0.690315,
              42.462455
            ],
            [
              -0.689243,
              42.46281
            ],
            [
              -0.688192,
              42.463283
            ],
            [
              -0.687162,
              42.463874
            ],
            [
              -0.686248,
              42.464514
            ],
            [
              -0.685452,
              42.4652
            ],
            [
              -0.684716,
              42.465921
            ],
            [
              -0.68404,
              42.466676
            ],
            [
              -0.683417,
              42.467424
            ],
            [
              -0.682847,
              42.468168
            ],
            [
              -0.682307,
              42.468928
            ],
            [
              -0.681797,
              42.469704
            ],
            [
              -0.681287,
              42.470481
            ],
            [
              -0.680777,
              42.471258
            ],
            [
              -0.68021,
              42.472021
            ],
            [
              -0.679587,
              42.47277
            ],
            [
              -0.678881,
              42.473507
            ],
            [
              -0.678091,
              42.474234
            ],
            [
              -0.677291,
              42.474901
            ],
            [
              -0.67648,
              42.475509
            ],
            [
              -0.675933,
              42.476229
            ],
            [
              -0.67565,
              42.477063
            ],
            [
              -0.675494,
              42.47753
            ],
            [
              -0.675466,
              42.477632
            ],
            [
              -0.675272,
              42.477792
            ],
            [
              -0.674912,
              42.478011
            ],
            [
              -0.674216,
              42.478626
            ],
            [
              -0.673183,
              42.479637
            ],
            [
              -0.672149,
              42.480648
            ],
            [
              -0.671116,
              42.481658
            ],
            [
              -0.670043,
              42.482674
            ],
            [
              -0.66893,
              42.483693
            ],
            [
              -0.667817,
              42.484712
            ],
            [
              -0.666704,
              42.485731
            ],
            [
              -0.665681,
              42.486801
            ],
            [
              -0.664748,
              42.487921
            ],
            [
              -0.663815,
              42.489042
            ],
            [
              -0.662882,
              42.490162
            ],
            [
              -0.661989,
              42.491278
            ],
            [
              -0.661135,
              42.49239
            ],
            [
              -0.660197,
              42.493481
            ],
            [
              -0.659174,
              42.49455
            ],
            [
              -0.658508,
              42.495444
            ],
            [
              -0.658199,
              42.496162
            ],
            [
              -0.657372,
              42.496592
            ],
            [
              -0.656029,
              42.496734
            ],
            [
              -0.654408,
              42.496758
            ],
            [
              -0.65251,
              42.496663
            ],
            [
              -0.650953,
              42.496405
            ],
            [
              -0.649738,
              42.495984
            ],
            [
              -0.648655,
              42.495506
            ],
            [
              -0.647705,
              42.494973
            ],
            [
              -0.646702,
              42.494466
            ],
            [
              -0.645648,
              42.493985
            ],
            [
              -0.644597,
              42.493526
            ],
            [
              -0.643549,
              42.493087
            ],
            [
              -0.642437,
              42.492761
            ],
            [
              -0.641259,
              42.492547
            ],
            [
              -0.640071,
              42.49244
            ],
            [
              -0.638874,
              42.49244
            ],
            [
              -0.637663,
              42.492356
            ],
            [
              -0.636436,
              42.49219
            ],
            [
              -0.635365,
              42.491775
            ],
            [
              -0.634448,
              42.491111
            ],
            [
              -0.633515,
              42.490512
            ],
            [
              -0.632565,
              42.489978
            ],
            [
              -0.631179,
              42.489237
            ],
            [
              -0.629357,
              42.488287
            ],
            [
              -0.627894,
              42.487596
            ],
            [
              -0.626791,
              42.487163
            ],
            [
              -0.625614,
              42.486949
            ],
            [
              -0.624361,
              42.486955
            ],
            [
              -0.623147,
              42.48702
            ],
            [
              -0.621973,
              42.487144
            ],
            [
              -0.620787,
              42.487205
            ],
            [
              -0.619591,
              42.487205
            ],
            [
              -0.618398,
              42.487225
            ],
            [
              -0.617208,
              42.487266
            ],
            [
              -0.61619,
              42.487627
            ],
            [
              -0.615343,
              42.488308
            ],
            [
              -0.614801,
              42.489106
            ],
            [
              -0.614565,
              42.490018
            ],
            [
              -0.614206,
              42.490881
            ],
            [
              -0.613724,
              42.491693
            ],
            [
              -0.613505,
              42.49254
            ],
            [
              -0.613548,
              42.493423
            ],
            [
              -0.613683,
              42.494339
            ],
            [
              -0.613909,
              42.495288
            ],
            [
              -0.614131,
              42.496216
            ],
            [
              -0.61435,
              42.497123
            ],
            [
              -0.614453,
              42.498021
            ],
            [
              -0.614441,
              42.49891
            ],
            [
              -0.614429,
              42.499467
            ],
            [
              -0.614416,
              42.499693
            ],
            [
              -0.614181,
              42.49983
            ],
            [
              -0.613722,
              42.499878
            ],
            [
              -0.612746,
              42.499955
            ],
            [
              -0.611255,
              42.500062
            ],
            [
              -0.609853,
              42.499904
            ],
            [
              -0.608542,
              42.499482
            ],
            [
              -0.60713,
              42.499071
            ],
            [
              -0.605617,
              42.49867
            ],
            [
              -0.604108,
              42.498294
            ],
            [
              -0.602604,
              42.497943
            ],
            [
              -0.601074,
              42.497646
            ],
            [
              -0.599521,
              42.497402
            ],
            [
              -0.598034,
              42.497151
            ],
            [
              -0.596615,
              42.496893
            ],
            [
              -0.59518,
              42.496739
            ],
            [
              -0.593729,
              42.496688
            ],
            [
              -0.592254,
              42.49669
            ],
            [
              -0.590753,
              42.496746
            ],
            [
              -0.589273,
              42.496724
            ],
            [
              -0.587813,
              42.496623
            ],
            [
              -0.586376,
              42.496647
            ],
            [
              -0.584961,
              42.496796
            ],
            [
              -0.583653,
              42.497162
            ],
            [
              -0.582452,
              42.497747
            ],
            [
              -0.581642,
              42.498596
            ],
            [
              -0.581222,
              42.49971
            ],
            [
              -0.580964,
              42.50096
            ],
            [
              -0.580867,
              42.502345
            ],
            [
              -0.580916,
              42.503588
            ],
            [
              -0.581111,
              42.504688
            ],
            [
              -0.581201,
              42.505773
            ],
            [
              -0.581186,
              42.506845
            ],
            [
              -0.581343,
              42.507923
            ],
            [
              -0.581674,
              42.509009
            ],
            [
              -0.582101,
              42.510059
            ],
            [
              -0.582625,
              42.511074
            ],
            [
              -0.583274,
              42.512024
            ],
            [
              -0.58405,
              42.51291
            ],
            [
              -0.585073,
              42.513643
            ],
            [
              -0.586344,
              42.514223
            ],
            [
              -0.587702,
              42.514716
            ],
            [
              -0.589148,
              42.515124
            ],
            [
              -0.590594,
              42.515533
            ],
            [
              -0.592041,
              42.515941
            ],
            [
              -0.593444,
              42.516302
            ],
            [
              -0.594805,
              42.516617
            ],
            [
              -0.596117,
              42.51704
            ],
            [
              -0.597378,
              42.517569
            ],
            [
              -0.59867,
              42.51807
            ],
            [
              -0.59999,
              42.518542
            ],
            [
              -0.601394,
              42.518903
            ],
            [
              -0.602881,
              42.519154
            ],
            [
              -0.604393,
              42.519351
            ],
            [
              -0.605929,
              42.519495
            ],
            [
              -0.607529,
              42.519607
            ],
            [
              -0.609191,
              42.519686
            ],
            [
              -0.610744,
              42.519726
            ],
            [
              -0.612187,
              42.519727
            ],
            [
              -0.613576,
              42.519428
            ],
            [
              -0.614911,
              42.518828
            ],
            [
              -0.616637,
              42.518494
            ],
            [
              -0.618754,
              42.518423
            ],
            [
              -0.620547,
              42.518463
            ],
            [
              -0.622016,
              42.518614
            ],
            [
              -0.623631,
              42.518621
            ],
            [
              -0.625393,
              42.518486
            ],
            [
              -0.626968,
              42.518651
            ],
            [
              -0.628356,
              42.519116
            ],
            [
              -0.629749,
              42.519605
            ],
            [
              -0.631146,
              42.52012
            ],
            [
              -0.6323,
              42.520813
            ],
            [
              -0.633211,
              42.521685
            ],
            [
              -0.634123,
              42.522556
            ],
            [
              -0.635034,
              42.523428
            ],
            [
              -0.635975,
              42.524271
            ],
            [
              -0.636945,
              42.525085
            ],
            [
              -0.637944,
              42.525871
            ],
            [
              -0.638972,
              42.526628
            ],
            [
              -0.640064,
              42.527353
            ],
            [
              -0.641218,
              42.528046
            ],
            [
              -0.642402,
              42.528711
            ],
            [
              -0.643615,
              42.529346
            ],
            [
              -0.644799,
              42.530011
            ],
            [
              -0.645954,
              42.530704
            ],
            [
              -0.647113,
              42.531421
            ],
            [
              -0.648276,
              42.532164
            ],
            [
              -0.649431,
              42.532857
            ],
            [
              -0.650577,
              42.5335
            ],
            [
              -0.651918,
              42.533893
            ],
            [
              -0.653455,
              42.534036
            ],
            [
              -0.654945,
              42.534107
            ],
            [
              -0.656388,
              42.534108
            ],
            [
              -0.6578,
              42.533933
            ],
            [
              -0.65918,
              42.533583
            ],
            [
              -0.66058,
              42.533154
            ],
            [
              -0.662001,
              42.532647
            ],
            [
              -0.663345,
              42.532097
            ],
            [
              -0.664613,
              42.531505
            ],
            [
              -0.665609,
              42.530737
            ],
            [
              -0.666333,
              42.529794
            ],
            [
              -0.666904,
              42.528766
            ],
            [
              -0.667323,
              42.527652
            ],
            [
              -0.667894,
              42.526623
            ],
            [
              -0.668618,
              42.525681
            ],
            [
              -0.669576,
              42.524891
            ],
            [
              -0.670767,
              42.524256
            ],
            [
              -0.671994,
              42.524202
            ],
            [
              -0.673256,
              42.52473
            ],
            [
              -0.674222,
              42.525519
            ],
            [
              -0.674892,
              42.526569
            ],
            [
              -0.675321,
              42.527619
            ],
            [
              -0.675509,
              42.528668
            ],
            [
              -0.675837,
              42.529729
            ],
            [
              -0.676304,
              42.5308
            ],
            [
              -0.676632,
              42.53186
            ],
            [
              -0.67682,
              42.53291
            ],
            [
              -0.677009,
              42.53396
            ],
            [
              -0.677197,
              42.53501
            ],
            [
              -0.677453,
              42.536052
            ],
            [
              -0.677777,
              42.537088
            ],
            [
              -0.678545,
              42.537923
            ],
            [
              -0.679759,
              42.538559
            ],
            [
              -0.681087,
              42.538876
            ],
            [
              -0.68253,
              42.538876
            ],
            [
              -0.683712,
              42.538843
            ],
            [
              -0.684633,
              42.538778
            ],
            [
              -0.685665,
              42.539031
            ],
            [
              -0.68681,
              42.5396
            ],
            [
              -0.688568,
              42.54016
            ],
            [
              -0.69094,
              42.540711
            ],
            [
              -0.693259,
              42.541267
            ],
            [
              -0.695525,
              42.541829
            ],
            [
              -0.697692,
              42.542441
            ],
            [
              -0.69976,
              42.543104
            ],
            [
              -0.701828,
              42.543767
            ],
            [
              -0.703896,
              42.54443
            ],
            [
              -0.706085,
              42.54516
            ],
            [
              -0.708394,
              42.545957
            ],
            [
              -0.710635,
              42.546682
            ],
            [
              -0.71281,
              42.547333
            ],
            [
              -0.715144,
              42.547967
            ],
            [
              -0.717637,
              42.548585
            ],
            [
              -0.720003,
              42.549095
            ],
            [
              -0.722241,
              42.549499
            ],
            [
              -0.724599,
              42.54997
            ],
            [
              -0.727079,
              42.550508
            ],
            [
              -0.729544,
              42.550968
            ],
            [
              -0.731995,
              42.551348
            ],
            [
              -0.734371,
              42.551617
            ],
            [
              -0.736673,
              42.551772
            ],
            [
              -0.739007,
              42.551804
            ],
            [
              -0.741372,
              42.551712
            ],
            [
              -0.743784,
              42.551576
            ],
            [
              -0.746241,
              42.551394
            ],
            [
              -0.748586,
              42.551183
            ],
            [
              -0.750816,
              42.550945
            ],
            [
              -0.753012,
              42.55051
            ],
            [
              -0.755171,
              42.549878
            ],
            [
              -0.757366,
              42.549443
            ],
            [
              -0.759597,
              42.549205
            ],
            [
              -0.761881,
              42.548961
            ],
            [
              -0.764218,
              42.548711
            ],
            [
              -0.766501,
              42.548466
            ],
            [
              -0.768732,
              42.548228
            ],
            [
              -0.77047,
              42.54736
            ],
            [
              -0.771714,
              42.545862
            ],
            [
              -0.773146,
              42.544505
            ],
            [
              -0.774767,
              42.543289
            ],
            [
              -0.776266,
              42.542005
            ],
            [
              -0.777645,
              42.540653
            ],
            [
              -0.778443,
              42.539425
            ],
            [
              -0.77866,
              42.538319
            ],
            [
              -0.779293,
              42.53771
            ],
            [
              -0.780344,
              42.537598
            ],
            [
              -0.781627,
              42.537218
            ],
            [
              -0.783142,
              42.536572
            ],
            [
              -0.784073,
              42.535625
            ],
            [
              -0.784418,
              42.534377
            ],
            [
              -0.784581,
              42.533028
            ],
            [
              -0.784563,
              42.531578
            ],
            [
              -0.784327,
              42.530416
            ],
            [
              -0.783873,
              42.529544
            ],
            [
              -0.783946,
              42.528663
            ],
            [
              -0.784547,
              42.527772
            ],
            [
              -0.78509,
              42.52686
            ],
            [
              -0.785575,
              42.525927
            ],
            [
              -0.786034,
              42.525018
            ],
            [
              -0.786468,
              42.524134
            ],
            [
              -0.786902,
              42.52325
            ],
            [
              -0.787336,
              42.522366
            ],
            [
              -0.787555,
              42.521439
            ],
            [
              -0.787557,
              42.520469
            ],
            [
              -0.787301,
              42.519549
            ],
            [
              -0.786786,
              42.518678
            ],
            [
              -0.786109,
              42.517892
            ],
            [
              -0.785268,
              42.517188
            ],
            [
              -0.784456,
              42.516482
            ],
            [
              -0.783674,
              42.515772
            ],
            [
              -0.782912,
              42.515016
            ],
            [
              -0.782172,
              42.514214
            ],
            [
              -0.781466,
              42.51343
            ],
            [
              -0.780792,
              42.512665
            ],
            [
              -0.780256,
              42.511841
            ],
            [
              -0.779859,
              42.510958
            ],
            [
              -0.779574,
              42.510041
            ],
            [
              -0.779401,
              42.50909
            ],
            [
              -0.779349,
              42.508147
            ],
            [
              -0.779418,
              42.507215
            ],
            [
              -0.780017,
              42.506423
            ],
            [
              -0.781148,
              42.505773
            ],
            [
              -0.782309,
              42.505296
            ],
            [
              -0.783502,
              42.504992
            ],
            [
              -0.784707,
              42.504752
            ],
            [
              -0.785923,
              42.504578
            ],
            [
              -0.786755,
              42.504459
            ],
            [
              -0.787202,
              42.504396
            ],
            [
              -0.787605,
              42.504762
            ],
            [
              -0.787964,
              42.505558
            ],
            [
              -0.788997,
              42.506504
            ],
            [
              -0.790706,
              42.5076
            ],
            [
              -0.792636,
              42.508432
            ],
            [
              -0.794788,
              42.509001
            ],
            [
              -0.797037,
              42.50892
            ],
            [
              -0.799385,
              42.508188
            ],
            [
              -0.8009,
              42.507376
            ],
            [
              -0.801582,
              42.506483
            ],
            [
              -0.802666,
              42.505848
            ],
            [
              -0.804151,
              42.505469
            ],
            [
              -0.805643,
              42.504877
            ],
            [
              -0.807143,
              42.504074
            ],
            [
              -0.807985,
              42.502988
            ],
            [
              -0.808169,
              42.501619
            ],
            [
              -0.808221,
              42.500233
            ],
            [
              -0.808139,
              42.498828
            ],
            [
              -0.807448,
              42.49765
            ],
            [
              -0.80615,
              42.496697
            ],
            [
              -0.805199,
              42.496201
            ],
            [
              -0.804597,
              42.49616
            ],
            [
              -0.804216,
              42.49605
            ],
            [
              -0.804058,
              42.49587
            ],
            [
              -0.803949,
              42.495772
            ],
            [
              -0.803891,
              42.495756
            ],
            [
              -0.80375,
              42.495136
            ],
            [
              -0.803528,
              42.493912
            ],
            [
              -0.803729,
              42.492664
            ],
            [
              -0.804352,
              42.491393
            ],
            [
              -0.805018,
              42.490118
            ],
            [
              -0.805725,
              42.488837
            ],
            [
              -0.806044,
              42.487536
            ],
            [
              -0.805974,
              42.486212
            ],
            [
              -0.805414,
              42.485005
            ],
            [
              -0.804361,
              42.483914
            ],
            [
              -0.803231,
              42.482863
            ],
            [
              -0.802022,
              42.481852
            ],
            [
              -0.800856,
              42.480836
            ],
            [
              -0.799731,
              42.479816
            ],
            [
              -0.798763,
              42.478716
            ],
            [
              -0.797951,
              42.477536
            ],
            [
              -0.797323,
              42.47676
            ],
            [
              -0.79688,
              42.476389
            ],
            [
              -0.797178,
              42.475693
            ],
            [
              -0.798218,
              42.474672
            ],
            [
              -0.7985,
              42.473404
            ],
            [
              -0.798024,
              42.471888
            ],
            [
              -0.797075,
              42.470534
            ],
            [
              -0.795652,
              42.469344
            ],
            [
              -0.794706,
              42.468642
            ],
            [
              -0.794236,
              42.468429
            ],
            [
              -0.793998,
              42.468168
            ],
            [
              -0.793994,
              42.467861
            ],
            [
              -0.793945,
              42.467453
            ],
            [
              -0.793853,
              42.466944
            ],
            [
              -0.79378,
              42.466398
            ],
            [
              -0.793727,
              42.465813
            ],
            [
              -0.793694,
              42.465192
            ],
            [
              -0.793681,
              42.464533
            ],
            [
              -0.793688,
              42.463907
            ],
            [
              -0.793717,
              42.463314
            ],
            [
              -0.793767,
              42.462754
            ],
            [
              -0.793838,
              42.462228
            ],
            [
              -0.793909,
              42.461666
            ],
            [
              -0.793979,
              42.461068
            ],
            [
              -0.794049,
              42.460436
            ],
            [
              -0.794119,
              42.459768
            ],
            [
              -0.794181,
              42.459136
            ],
            [
              -0.794235,
              42.45854
            ],
            [
              -0.794281,
              42.457981
            ],
            [
              -0.794319,
              42.457458
            ],
            [
              -0.79436,
              42.456895
            ],
            [
              -0.794402,
              42.456293
            ],
            [
              -0.794446,
              42.455651
            ],
            [
              -0.794492,
              42.45497
            ],
            [
              -0.794535,
              42.454322
            ],
            [
              -0.794575,
              42.453708
            ],
            [
              -0.794612,
              42.453127
            ],
            [
              -0.794646,
              42.45258
            ],
            [
              -0.794654,
              42.452022
            ],
            [
              -0.794636,
              42.451453
            ],
            [
              -0.794591,
              42.450874
            ],
            [
              -0.794521,
              42.450284
            ],
            [
              -0.794432,
              42.449747
            ],
            [
              -0.794324,
              42.449262
            ],
            [
              -0.794198,
              42.44883
            ],
            [
              -0.794053,
              42.44845
            ],
            [
              -0.793928,
              42.448096
            ],
            [
              -0.793821,
              42.447767
            ],
            [
              -0.793733,
              42.447464
            ],
            [
              -0.793664,
              42.447186
            ],
            [
              -0.793622,
              42.446963
            ],
            [
              -0.793606,
              42.446796
            ],
            [
              -0.793617,
              42.446683
            ],
            [
              -0.793653,
              42.446626
            ],
            [
              -0.793699,
              42.446537
            ],
            [
              -0.793755,
              42.446416
            ],
            [
              -0.793819,
              42.446264
            ],
            [
              -0.793892,
              42.44608
            ],
            [
              -0.793966,
              42.445884
            ],
            [
              -0.794042,
              42.445677
            ],
            [
              -0.794119,
              42.445457
            ],
            [
              -0.794198,
              42.445226
            ],
            [
              -0.794272,
              42.444968
            ],
            [
              -0.794344,
              42.444685
            ],
            [
              -0.794412,
              42.444377
            ],
            [
              -0.794477,
              42.444043
            ],
            [
              -0.794531,
              42.443719
            ],
            [
              -0.794575,
              42.443405
            ],
            [
              -0.794609,
              42.443101
            ],
            [
              -0.794632,
              42.442807
            ],
            [
              -0.794647,
              42.442504
            ],
            [
              -0.794652,
              42.44219
            ],
            [
              -0.794649,
              42.441867
            ],
            [
              -0.794638,
              42.441534
            ],
            [
              -0.794625,
              42.441261
            ],
            [
              -0.794611,
              42.44105
            ],
            [
              -0.794596,
              42.440898
            ],
            [
              -0.794579,
              42.440808
            ],
            [
              -0.794587,
              42.440636
            ],
            [
              -0.79462,
              42.440384
            ],
            [
              -0.794676,
              42.440051
            ],
            [
              -0.794757,
              42.439638
            ],
            [
              -0.794869,
              42.439208
            ],
            [
              -0.795011,
              42.438762
            ],
            [
              -0.795185,
              42.438301
            ],
            [
              -0.795389,
              42.437824
            ],
            [
              -0.795576,
              42.437343
            ],
            [
              -0.795746,
              42.436857
            ],
            [
              -0.795899,
              42.436367
            ],
            [
              -0.796036,
              42.435874
            ],
            [
              -0.796123,
              42.435379
            ],
            [
              -0.796163,
              42.434883
            ],
            [
              -0.796154,
              42.434387
            ],
            [
              -0.796096,
              42.43389
            ],
            [
              -0.795999,
              42.433398
            ],
            [
              -0.795862,
              42.432909
            ],
            [
              -0.795685,
              42.432425
            ],
            [
              -0.795469,
              42.431945
            ],
            [
              -0.795238,
              42.431467
            ],
            [
              -0.79499,
              42.43099
            ],
            [
              -0.794726,
              42.430515
            ],
            [
              -0.794447,
              42.430042
            ],
            [
              -0.794138,
              42.429584
            ],
            [
              -0.7938,
              42.429141
            ],
            [
              -0.793432,
              42.428713
            ],
            [
              -0.793035,
              42.428301
            ],
            [
              -0.792651,
              42.427875
            ],
            [
              -0.792282,
              42.427435
            ],
            [
              -0.791925,
              42.426982
            ],
            [
              -0.791583,
              42.426516
            ],
            [
              -0.791235,
              42.426062
            ],
            [
              -0.79088,
              42.425621
            ],
            [
              -0.790521,
              42.425192
            ],
            [
              -0.790155,
              42.424776
            ],
            [
              -0.789804,
              42.424353
            ],
            [
              -0.789468,
              42.423922
            ],
            [
              -0.789147,
              42.423483
            ],
            [
              -0.78884,
              42.423037
            ],
            [
              -0.788548,
              42.422583
            ],
            [
              -0.788271,
              42.422121
            ],
            [
              -0.788009,
              42.421652
            ],
            [
              -0.787762,
              42.421176
            ],
            [
              -0.787618,
              42.420694
            ],
            [
              -0.787578,
              42.420207
            ],
            [
              -0.787642,
              42.419715
            ],
            [
              -0.787811,
              42.419218
            ],
            [
              -0.787946,
              42.418718
            ],
            [
              -0.788049,
              42.418216
            ],
            [
              -0.788119,
              42.417711
            ],
            [
              -0.788156,
              42.417204
            ],
            [
              -0.788138,
              42.416703
            ],
            [
              -0.788064,
              42.416207
            ],
            [
              -0.787936,
              42.415718
            ],
            [
              -0.787751,
              42.415235
            ],
            [
              -0.787536,
              42.414755
            ],
            [
              -0.787288,
              42.414278
            ],
            [
              -0.787009,
              42.413805
            ],
            [
              -0.786698,
              42.413335
            ],
            [
              -0.786388,
              42.412865
            ],
            [
              -0.786077,
              42.412395
            ],
            [
              -0.785766,
              42.411925
            ],
            [
              -0.785455,
              42.411456
            ],
            [
              -0.785116,
              42.411007
            ],
            [
              -0.784749,
              42.410579
            ],
            [
              -0.784353,
              42.410172
            ],
            [
              -0.783928,
              42.409787
            ],
            [
              -0.783449,
              42.409455
            ],
            [
              -0.782915,
              42.409177
            ],
            [
              -0.782326,
              42.408952
            ],
            [
              -0.781682,
              42.408782
            ],
            [
              -0.781031,
              42.408612
            ],
            [
              -0.780371,
              42.408443
            ],
            [
              -0.779704,
              42.408275
            ],
            [
              -0.779029,
              42.408108
            ],
            [
              -0.778363,
              42.407946
            ],
            [
              -0.777705,
              42.407789
            ],
            [
              -0.777057,
              42.407637
            ],
            [
              -0.776418,
              42.40749
            ],
            [
              -0.775778,
              42.407342
            ],
            [
              -0.775139,
              42.407195
            ],
            [
              -0.7745,
              42.407048
            ],
            [
              -0.77386,
              42.406901
            ],
            [
              -0.773232,
              42.406723
            ],
            [
              -0.772613,
              42.406514
            ],
            [
              -0.772006,
              42.406273
            ],
            [
              -0.771408,
              42.406002
            ],
            [
              -0.770804,
              42.405737
            ],
            [
              -0.770193,
              42.405479
            ],
            [
              -0.769576,
              42.405228
            ],
            [
              -0.768951,
              42.404984
            ],
            [
              -0.768341,
              42.404732
            ],
            [
              -0.767746,
              42.404472
            ],
            [
              -0.767166,
              42.404205
            ],
            [
              -0.7666,
              42.40393
            ],
            [
              -0.766007,
              42.403724
            ],
            [
              -0.765385,
              42.403587
            ],
            [
              -0.764736,
              42.403518
            ],
            [
              -0.764059,
              42.403519
            ],
            [
              -0.7635,
              42.403533
            ],
            [
              -0.76306,
              42.403559
            ],
            [
              -0.762737,
              42.403598
            ],
            [
              -0.762533,
              42.40365
            ],
            [
              -0.762329,
              42.403647
            ],
            [
              -0.762124,
              42.403587
            ],
            [
              -0.76192,
              42.403472
            ],
            [
              -0.761716,
              42.403301
            ],
            [
              -0.761493,
              42.403118
            ],
            [
              -0.761251,
              42.402923
            ],
            [
              -0.760991,
              42.402716
            ],
            [
              -0.760713,
              42.402497
            ],
            [
              -0.760422,
              42.402272
            ],
            [
              -0.760118,
              42.402041
            ],
            [
              -0.759801,
              42.401804
            ],
            [
              -0.759471,
              42.40156
            ],
            [
              -0.759164,
              42.401337
            ],
            [
              -0.758879,
              42.401133
            ],
            [
              -0.758617,
              42.400949
            ],
            [
              -0.758377,
              42.400785
            ],
            [
              -0.758107,
              42.400608
            ],
            [
              -0.757806,
              42.400417
            ],
            [
              -0.757475,
              42.400213
            ],
            [
              -0.757114,
              42.399995
            ],
            [
              -0.75676,
              42.399788
            ],
            [
              -0.756416,
              42.39959
            ],
            [
              -0.756079,
              42.399402
            ],
            [
              -0.755751,
              42.399224
            ],
            [
              -0.755408,
              42.399044
            ],
            [
              -0.755052,
              42.398862
            ],
            [
              -0.754681,
              42.398677
            ],
            [
              -0.754297,
              42.398491
            ],
            [
              -0.753939,
              42.398322
            ],
            [
              -0.753609,
              42.398171
            ],
            [
              -0.753306,
              42.398037
            ],
            [
              -0.75303,
              42.397922
            ],
            [
              -0.752724,
              42.397796
            ],
            [
              -0.752388,
              42.397661
            ],
            [
              -0.752022,
              42.397516
            ],
            [
              -0.751626,
              42.397361
            ],
            [
              -0.751242,
              42.397212
            ],
            [
              -0.750871,
              42.397071
            ],
            [
              -0.750512,
              42.396936
            ],
            [
              -0.750166,
              42.396808
            ],
            [
              -0.749809,
              42.396677
            ],
            [
              -0.74944,
              42.396545
            ],
            [
              -0.74906,
              42.396411
            ],
            [
              -0.74867,
              42.396274
            ],
            [
              -0.748309,
              42.396151
            ],
            [
              -0.74798,
              42.39604
            ],
            [
              -0.747681,
              42.395941
            ],
            [
              -0.747413,
              42.395855
            ],
            [
              -0.747138,
              42.395768
            ],
            [
              -0.746854,
              42.395679
            ],
            [
              -0.746563,
              42.39559
            ],
            [
              -0.746265,
              42.395499
            ],
            [
              -0.745991,
              42.395417
            ],
            [
              -0.745741,
              42.395343
            ],
            [
              -0.745515,
              42.395278
            ],
            [
              -0.745314,
              42.395222
            ],
            [
              -0.745123,
              42.39517
            ],
            [
              -0.744943,
              42.395123
            ],
            [
              -0.744773,
              42.39508
            ],
            [
              -0.744615,
              42.395042
            ],
            [
              -0.744483,
              42.395013
            ],
            [
              -0.74438,
              42.394993
            ],
            [
              -0.744304,
              42.394981
            ],
            [
              -0.744256,
              42.394978
            ],
            [
              -0.744176,
              42.39498
            ],
            [
              -0.744064,
              42.394986
            ],
            [
              -0.743921,
              42.394996
            ],
            [
              -0.743746,
              42.395011
            ],
            [
              -0.743558,
              42.395028
            ],
            [
              -0.743358,
              42.395049
            ],
            [
              -0.743144,
              42.395072
            ],
            [
              -0.742918,
              42.395098
            ],
            [
              -0.742663,
              42.395129
            ],
            [
              -0.74238,
              42.395165
            ],
            [
              -0.742069,
              42.395205
            ],
            [
              -0.741729,
              42.395249
            ],
            [
              -0.741398,
              42.395294
            ],
            [
              -0.741074,
              42.395338
            ],
            [
              -0.740759,
              42.395382
            ],
            [
              -0.740451,
              42.395426
            ],
            [
              -0.740153,
              42.395469
            ],
            [
              -0.739863,
              42.395512
            ],
            [
              -0.739583,
              42.395553
            ],
            [
              -0.739311,
              42.395593
            ],
            [
              -0.739078,
              42.395628
            ],
            [
              -0.738882,
              42.395658
            ],
            [
              -0.738725,
              42.395683
            ],
            [
              -0.738605,
              42.395702
            ],
            [
              -0.738509,
              42.395738
            ],
            [
              -0.738436,
              42.39579
            ],
            [
              -0.738387,
              42.395859
            ],
            [
              -0.738361,
              42.395944
            ],
            [
              -0.738361,
              42.396035
            ],
            [
              -0.738387,
              42.396133
            ],
            [
              -0.738289,
              42.396158
            ],
            [
              -0.738068,
              42.396111
            ],
            [
              -0.737148,
              42.3959
            ],
            [
              -0.73553,
              42.395527
            ],
            [
              -0.733912,
              42.395154
            ],
            [
              -0.732294,
              42.394781
            ],
            [
              -0.730582,
              42.39457
            ],
            [
              -0.728777,
              42.39452
            ],
            [
              -0.727124,
              42.39418
            ],
            [
              -0.725623,
              42.393552
            ],
            [
              -0.724088,
              42.392958
            ],
            [
              -0.722518,
              42.392397
            ],
            [
              -0.720838,
              42.391909
            ],
            [
              -0.719049,
              42.391493
            ],
            [
              -0.717309,
              42.391345
            ],
            [
              -0.715616,
              42.391465
            ],
            [
              -0.713923,
              42.391585
            ],
            [
              -0.712231,
              42.391705
            ],
            [
              -0.71054,
              42.391612
            ],
            [
              -0.708853,
              42.391307
            ],
            [
              -0.707248,
              42.39078
            ],
            [
              -0.705727,
              42.390032
            ],
            [
              -0.704165,
              42.389289
            ],
            [
              -0.702563,
              42.388549
            ],
            [
              -0.700972,
              42.38787
            ],
            [
              -0.699392,
              42.387249
            ],
            [
              -0.697742,
              42.386697
            ],
            [
              -0.696023,
              42.386213
            ],
            [
              -0.694384,
              42.38572
            ],
            [
              -0.692825,
              42.385219
            ],
            [
              -0.691188,
              42.384968
            ],
            [
              -0.689474,
              42.384969
            ],
            [
              -0.687777,
              42.385058
            ],
            [
              -0.686095,
              42.385237
            ],
            [
              -0.684501,
              42.38568
            ],
            [
              -0.682995,
              42.386386
            ],
            [
              -0.681529,
              42.387088
            ],
            [
              -0.680103,
              42.387785
            ],
            [
              -0.678738,
              42.388598
            ],
            [
              -0.677435,
              42.389525
            ],
            [
              -0.676131,
              42.390452
            ],
            [
              -0.674828,
              42.391379
            ],
            [
              -0.673701,
              42.392379
            ],
            [
              -0.672749,
              42.39345
            ],
            [
              -0.671804,
              42.394552
            ],
            [
              -0.670863,
              42.395683
            ],
            [
              -0.669917,
              42.396784
            ],
            [
              -0.668966,
              42.397856
            ],
            [
              -0.667782,
              42.39877
            ],
            [
              -0.666366,
              42.399527
            ],
            [
              -0.66482,
              42.400237
            ],
            [
              -0.663142,
              42.400901
            ],
            [
              -0.66159,
              42.401581
            ],
            [
              -0.660164,
              42.402278
            ],
            [
              -0.658753,
              42.403065
            ],
            [
              -0.657359,
              42.403941
            ],
            [
              -0.6561,
              42.404893
            ],
            [
              -0.654978,
              42.405922
            ],
            [
              -0.65394,
              42.406972
            ],
            [
              -0.652989,
              42.408044
            ],
            [
              -0.652229,
              42.409277
            ],
            [
              -0.651662,
              42.410671
            ],
            [
              -0.651249,
              42.412019
            ],
            [
              -0.650992,
              42.413321
            ],
            [
              -0.650859,
              42.414639
            ],
            [
              -0.650853,
              42.415974
            ],
            [
              -0.650961,
              42.417267
            ],
            [
              -0.651184,
              42.418517
            ],
            [
              -0.651413,
              42.419797
            ],
            [
              -0.651647,
              42.421107
            ],
            [
              -0.65215,
              42.422327
            ],
            [
              -0.652924,
              42.423458
            ],
            [
              -0.653962,
              42.424471
            ],
            [
              -0.655265,
              42.425364
            ],
            [
              -0.657001,
              42.426393
            ],
            [
              -0.659169,
              42.427558
            ],
            [
              -0.661033,
              42.428392
            ],
            [
              -0.662593,
              42.428894
            ],
            [
              -0.664089,
              42.429493
            ],
            [
              -0.66552,
              42.43019
            ],
            [
              -0.667016,
              42.43079
            ],
            [
              -0.668576,
              42.431292
            ],
            [
              -0.670106,
              42.431857
            ],
            [
              -0.671607,
              42.432486
            ],
            [
              -0.673109,
              42.433116
            ],
            [
              -0.67461,
              42.433745
            ],
            [
              -0.67614,
              42.43431
            ],
            [
              -0.677701,
              42.434812
            ],
            [
              -0.679317,
              42.435398
            ],
            [
              -0.680989,
              42.43607
            ],
            [
              -0.682541,
              42.436754
            ],
            [
              -0.683973,
              42.437451
            ],
            [
              -0.685474,
              42.43808
            ],
            [
              -0.687045,
              42.438641
            ],
            [
              -0.688512,
              42.439304
            ],
            [
              -0.689875,
              42.440069
            ],
            [
              -0.691093,
              42.440941
            ],
            [
              -0.692167,
              42.441919
            ],
            [
              -0.693327,
              42.442918
            ],
            [
              -0.694572,
              42.443938
            ],
            [
              -0.695649,
              42.444626
            ],
            [
              -0.696558,
              42.444983
            ],
            [
              -0.69698,
              42.445219
            ],
            [
              -0.696915,
              42.445336
            ],
            [
              -0.696758,
              42.446088
            ],
            [
              -0.696507,
              42.447475
            ],
            [
              -0.696251,
              42.448832
            ],
            [
              -0.695989,
              42.450158
            ],
            [
              -0.696011,
              42.450862
            ],
            [
              -0.696318,
              42.450943
            ],
            [
              -0.696415,
              42.451116
            ],
            [
              -0.696302,
              42.451378
            ],
            [
              -0.696158,
              42.452151
            ],
            [
              -0.695983,
              42.453433
            ],
            [
              -0.695773,
              42.454749
            ],
            [
              -0.695529,
              42.456099
            ],
            [
              -0.69528,
              42.457419
            ],
            [
              -0.695025,
              42.45871
            ],
            [
              -0.69492,
              42.459806
            ],
            [
              -0.694966,
              42.460707
            ],
            [
              -0.694494,
              42.46128
            ]
          ],
          [
            [
              -0.691301,
              42.522579
            ],
            [
              -0.690225,
              42.520174
            ],
            [
              -0.690093,
              42.518624
            ],
            [
              -0.690905,
              42.51793
            ],
            [
              -0.691923,
              42.517561
            ],
            [
              -0.693145,
              42.517518
            ],
            [
              -0.694375,
              42.517518
            ],
            [
              -0.695613,
              42.51756
            ],
            [
              -0.696835,
              42.517517
            ],
            [
              -0.698042,
              42.517389
            ],
            [
              -0.699157,
              42.517074
            ],
            [
              -0.70018,
              42.516575
            ],
            [
              -0.701167,
              42.516035
            ],
            [
              -0.702117,
              42.515457
            ],
            [
              -0.702994,
              42.514799
            ],
            [
              -0.703799,
              42.514061
            ],
            [
              -0.704778,
              42.513479
            ],
            [
              -0.705931,
              42.513053
            ],
            [
              -0.707123,
              42.512839
            ],
            [
              -0.708353,
              42.512838
            ],
            [
              -0.709485,
              42.513109
            ],
            [
              -0.71052,
              42.51365
            ],
            [
              -0.71148,
              42.514265
            ],
            [
              -0.712365,
              42.514953
            ],
            [
              -0.712831,
              42.51575
            ],
            [
              -0.712877,
              42.516657
            ],
            [
              -0.712653,
              42.517528
            ],
            [
              -0.712159,
              42.518363
            ],
            [
              -0.711546,
              42.519188
            ],
            [
              -0.710814,
              42.520005
            ],
            [
              -0.710263,
              42.520845
            ],
            [
              -0.709891,
              42.52171
            ],
            [
              -0.709552,
              42.522593
            ],
            [
              -0.709246,
              42.523495
            ],
            [
              -0.708508,
              42.524116
            ],
            [
              -0.70734,
              42.524458
            ],
            [
              -0.706094,
              42.524699
            ],
            [
              -0.704772,
              42.524839
            ],
            [
              -0.703502,
              42.524779
            ],
            [
              -0.702283,
              42.524518
            ],
            [
              -0.70111,
              42.524186
            ],
            [
              -0.699983,
              42.523785
            ],
            [
              -0.698776,
              42.523587
            ],
            [
              -0.697489,
              42.523594
            ],
            [
              -0.696201,
              42.5236
            ],
            [
              -0.694913,
              42.523607
            ],
            [
              -0.693662,
              42.523653
            ],
            [
              -0.692447,
              42.523739
            ],
            [
              -0.691301,
              42.522579
            ]
          ]
        ]
      }
    }
  ]
}
